{
"type": "FeatureCollection",
"name": "all_stations",
"crs": { "type": "name", "properties": { "name": "urn:ogc:def:crs:OGC:1.3:CRS84" } },
"features": [
{ "type": "Feature", "properties": { "address": "420 Avalon Canyon Road", "city": "Avalon", "zip": "90704", "department": "Avalon Fire Department", "stanum": null }, "geometry": { "type": "Point", "coordinates": [ -118.328978122102995, 33.339465993990501 ] } },
{ "type": "Feature", "properties": { "address": "2759 Rowena Avenue", "city": "Los Angeles", "zip": "90039", "department": "LAFD", "stanum": "56" }, "geometry": { "type": "Point", "coordinates": [ -118.263862189410005, 34.107654875110597 ] } },
{ "type": "Feature", "properties": { "address": "135 South Fair Oaks Avenue", "city": "Pasadena", "zip": "91105", "department": "Pasadena Fire Department", "stanum": "31" }, "geometry": { "type": "Point", "coordinates": [ -118.150726318573007, 34.143184661639701 ] } },
{ "type": "Feature", "properties": { "address": "3361 Palo Verde Avenue", "city": "Long Beach", "zip": "90808", "department": "Long Beach Fire Department", "stanum": "18" }, "geometry": { "type": "Point", "coordinates": [ -118.108214649990003, 33.818216205727602 ] } },
{ "type": "Feature", "properties": { "address": "540 Pier Avenue", "city": "Hermosa Beach", "zip": "90254", "department": "Hermosa Beach Fire Department", "stanum": null }, "geometry": { "type": "Point", "coordinates": [ -118.395932191249997, 33.864184840873698 ] } },
{ "type": "Feature", "properties": { "address": "21050 Burbank Boulevard", "city": "Woodland Hills", "zip": "91367", "department": "LAFD", "stanum": "84" }, "geometry": { "type": "Point", "coordinates": [ -118.591476098263996, 34.172937815693402 ] } },
{ "type": "Feature", "properties": { "address": "1909 West Slauson Avenue", "city": "Los Angeles", "zip": "90047-1130", "department": "LAFD", "stanum": "66" }, "geometry": { "type": "Point", "coordinates": [ -118.311732193132997, 33.989414845640503 ] } },
{ "type": "Feature", "properties": { "address": "1962 East Cesar E Chavez Avenue", "city": "Los Angeles", "zip": "90033", "department": "LAFD", "stanum": "2" }, "geometry": { "type": "Point", "coordinates": [ -118.213452581512001, 34.049115357823503 ] } },
{ "type": "Feature", "properties": { "address": "231 West Mountain View Avenue", "city": "Glendora", "zip": "91741-3302", "department": "Glendora Fire Department", "stanum": "151" }, "geometry": { "type": "Point", "coordinates": [ -117.867564631264003, 34.1377672869246 ] } },
{ "type": "Feature", "properties": { "address": "6811 De Soto Avenue", "city": "Canoga Park", "zip": "91303", "department": "LAFD", "stanum": "72" }, "geometry": { "type": "Point", "coordinates": [ -118.588902485142, 34.1942582194133 ] } },
{ "type": "Feature", "properties": { "address": "3000 Hoover Street", "city": "Los Angeles", "zip": "90007", "department": "LAFD", "stanum": "15" }, "geometry": { "type": "Point", "coordinates": [ -118.283679485006999, 34.026923821649198 ] } },
{ "type": "Feature", "properties": { "address": "11641 Corbin Avenue", "city": "Northridge", "zip": "91326-4109", "department": "LAFD", "stanum": "28" }, "geometry": { "type": "Point", "coordinates": [ -118.569747361343005, 34.281091061885498 ] } },
{ "type": "Feature", "properties": { "address": "5023 West Washington Boulevard", "city": "Los Angeles", "zip": "90040", "department": "LAFD", "stanum": "68" }, "geometry": { "type": "Point", "coordinates": [ -118.349280404078002, 34.0410333485788 ] } },
{ "type": "Feature", "properties": { "address": "8900 South Emerson Avenue", "city": "Los Angeles", "zip": "90045", "department": "LAFD", "stanum": "5" }, "geometry": { "type": "Point", "coordinates": [ -118.403995306262004, 33.955655336609503 ] } },
{ "type": "Feature", "properties": { "address": "160 East Market Street", "city": "Long Beach", "zip": "90805", "department": "Long Beach Fire Department", "stanum": "11" }, "geometry": { "type": "Point", "coordinates": [ -118.192285445351999, 33.854067186257097 ] } },
{ "type": "Feature", "properties": { "address": "30800 Bouquet Canyon Road", "city": "Saugus", "zip": "91390", "department": "United States Forest Service Angeles National Forest", "stanum": null }, "geometry": { "type": "Point", "coordinates": [ -118.452087403391999, 34.501876831437002 ] } },
{ "type": "Feature", "properties": { "address": "1331 West 253rd Street", "city": "Harbor City", "zip": "90710", "department": "LAFD", "stanum": "85" }, "geometry": { "type": "Point", "coordinates": [ -118.300239563161, 33.794921874927702 ] } },
{ "type": "Feature", "properties": { "address": "3111 North Cahuenga Boulevard", "city": "Los Angeles", "zip": "90068", "department": "LAFD", "stanum": "76" }, "geometry": { "type": "Point", "coordinates": [ -118.345692204130003, 34.126694871566599 ] } },
{ "type": "Feature", "properties": { "address": "7777 Foothill Boulevard", "city": "Tujunga", "zip": "91042", "department": "LAFD", "stanum": "74" }, "geometry": { "type": "Point", "coordinates": [ -118.301540999772001, 34.258415999585303 ] } },
{ "type": "Feature", "properties": { "address": "1601 North Hillhurst Avenue", "city": "Los Angeles", "zip": "90027-5517", "department": "LAFD", "stanum": "35" }, "geometry": { "type": "Point", "coordinates": [ -118.287722198007998, 34.100294858861297 ] } },
{ "type": "Feature", "properties": { "address": "3375 Fruitland Avenue", "city": "Vernon", "zip": "90058", "department": "Vernon Fire Department", "stanum": "1" }, "geometry": { "type": "Point", "coordinates": [ -118.205629075497001, 33.996934651754898 ] } },
{ "type": "Feature", "properties": { "address": "2200 West Main Street", "city": "Alhambra", "zip": "91801", "department": "Alhambra Fire Department", "stanum": "73" }, "geometry": { "type": "Point", "coordinates": [ -118.147382815022993, 34.0921950099656 ] } },
{ "type": "Feature", "properties": { "address": "326 North Virgil Avenue", "city": "Los Angeles", "zip": "90004-3624", "department": "LAFD", "stanum": "6" }, "geometry": { "type": "Point", "coordinates": [ -118.286537695516003, 34.077552357059901 ] } },
{ "type": "Feature", "properties": { "address": "10010 International Road", "city": "Los Angeles", "zip": "90045", "department": "LAFD", "stanum": "95" }, "geometry": { "type": "Point", "coordinates": [ -118.381240845204999, 33.9451560966248 ] } },
{ "type": "Feature", "properties": { "address": "2450 Ashland Avenue", "city": "Santa Monica", "zip": "90405-6032", "department": "Santa Monica Fire Department", "stanum": "5" }, "geometry": { "type": "Point", "coordinates": [ -118.456539840402002, 34.014459787216197 ] } },
{ "type": "Feature", "properties": { "address": "445 North Rexford Drive", "city": "Beverly Hills", "zip": "90210", "department": "Beverly Hills Fire Department", "stanum": "1" }, "geometry": { "type": "Point", "coordinates": [ -118.399772643863002, 34.072448731144497 ] } },
{ "type": "Feature", "properties": { "address": "Bella Vista Drive", "city": "La Habra Heights", "zip": "90631", "department": "La Habra Heights Fire Department", "stanum": "2" }, "geometry": { "type": "Point", "coordinates": [ -117.924810960355998, 33.950322888219098 ] } },
{ "type": "Feature", "properties": { "address": "4305 Vineland Avenue", "city": "Los Angeles", "zip": "91601", "department": "LAFD", "stanum": "86" }, "geometry": { "type": "Point", "coordinates": [ -118.370720816223994, 34.148452259448199 ] } },
{ "type": "Feature", "properties": { "address": "2305 West Burbank Boulevard", "city": "Burbank", "zip": "91506", "department": "Burbank Fire Department", "stanum": "14" }, "geometry": { "type": "Point", "coordinates": [ -118.336325595164993, 34.179663204965799 ] } },
{ "type": "Feature", "properties": { "address": "13035 Van Nuys Boulevard", "city": "Pacoima", "zip": "91331", "department": "LAFD", "stanum": "98" }, "geometry": { "type": "Point", "coordinates": [ -118.417386000041006, 34.269970999608702 ] } },
{ "type": "Feature", "properties": { "address": "1222 Daisy Avenue", "city": "Long Beach", "zip": "90813", "department": "Long Beach Fire Department", "stanum": "3" }, "geometry": { "type": "Point", "coordinates": [ -118.199080757565, 33.781753427853097 ] } },
{ "type": "Feature", "properties": { "address": "710 South Santa Anita Avenue", "city": "Arcadia", "zip": "91006-3535", "department": "Arcadia Fire Department", "stanum": "105" }, "geometry": { "type": "Point", "coordinates": [ -118.030822157760994, 34.131944876998297 ] } },
{ "type": "Feature", "properties": { "address": "20225 Devonshire Street", "city": "Chatsworth", "zip": "91311-3410", "department": "LAFD", "stanum": "107" }, "geometry": { "type": "Point", "coordinates": [ -118.573617060494001, 34.257557859936803 ] } },
{ "type": "Feature", "properties": { "address": "7575 East Wardlow Road", "city": "Long Beach", "zip": "90808", "department": "Long Beach Fire Department", "stanum": "5" }, "geometry": { "type": "Point", "coordinates": [ -118.087142208052001, 33.818906430859897 ] } },
{ "type": "Feature", "properties": { "address": "4800 Oak Grove Drive", "city": "La Canada Flintridge", "zip": "91011", "department": "NASA Jet Propulsion Lab Fire Department", "stanum": null }, "geometry": { "type": "Point", "coordinates": [ -118.174776506750007, 34.198012680370702 ] } },
{ "type": "Feature", "properties": { "address": "2627 Hollywood Way", "city": "Burbank", "zip": "91505", "department": "Bob Hope Airport Fire Department", "stanum": null }, "geometry": { "type": "Point", "coordinates": [ -118.360820989358999, 34.2001320657644 ] } },
{ "type": "Feature", "properties": { "address": "141 East Lemon Avenue", "city": "Monrovia", "zip": "91016-2807", "department": "Monrovia Fire Department", "stanum": "101" }, "geometry": { "type": "Point", "coordinates": [ -117.999647253996997, 34.147212680107501 ] } },
{ "type": "Feature", "properties": { "address": "400 Yacht Street", "city": "Wilmington", "zip": "90744", "department": "LAFD", "stanum": "49" }, "geometry": { "type": "Point", "coordinates": [ -118.255828857539996, 33.765720367418702 ] } },
{ "type": "Feature", "properties": { "address": "7921 Woodley Avenue", "city": "Van Nuys", "zip": "91406-1232", "department": "LAFD", "stanum": "90" }, "geometry": { "type": "Point", "coordinates": [ -118.484275540678993, 34.214718160118103 ] } },
{ "type": "Feature", "properties": { "address": "4370 South Hoover Street", "city": "Los Angeles", "zip": "90037-2563", "department": "LAFD", "stanum": "46" }, "geometry": { "type": "Point", "coordinates": [ -118.286845689591004, 34.004074948561403 ] } },
{ "type": "Feature", "properties": { "address": "108 North Fremont Avenue", "city": "Los Angeles", "zip": "90012-2410", "department": "LAFD", "stanum": "3" }, "geometry": { "type": "Point", "coordinates": [ -118.252468089345001, 34.058448656240103 ] } },
{ "type": "Feature", "properties": { "address": "311 East Orange Grove Avenue", "city": "Burbank", "zip": "91502", "department": "Burbank Fire Department", "stanum": "11" }, "geometry": { "type": "Point", "coordinates": [ -118.308389509527004, 34.183370867327604 ] } },
{ "type": "Feature", "properties": { "address": "1327 North Cole Avenue", "city": "Los Angeles", "zip": "90028", "department": "LAFD", "stanum": "27" }, "geometry": { "type": "Point", "coordinates": [ -118.330101013198998, 34.095554351643599 ] } },
{ "type": "Feature", "properties": { "address": "14123 Nordhoff Street", "city": "Los Angeles", "zip": "91331", "department": "LAFD", "stanum": "7" }, "geometry": { "type": "Point", "coordinates": [ -118.439658889043002, 34.235701686271803 ] } },
{ "type": "Feature", "properties": { "address": "5320 Tujunga Avenue", "city": "Los Angeles", "zip": "91601", "department": "LAFD", "stanum": "60" }, "geometry": { "type": "Point", "coordinates": [ -118.378650119247993, 34.167789561339802 ] } },
{ "type": "Feature", "properties": { "address": "13200 Burbank Boulevard", "city": "Los Angeles", "zip": "91401", "department": "LAFD", "stanum": "102" }, "geometry": { "type": "Point", "coordinates": [ -118.420734826176002, 34.171863059401602 ] } },
{ "type": "Feature", "properties": { "address": "1420 West Verdugo Avenue", "city": "Burbank", "zip": "91506", "department": "Burbank Fire Department", "stanum": "15" }, "geometry": { "type": "Point", "coordinates": [ -118.320894405602004, 34.168297460244098 ] } },
{ "type": "Feature", "properties": { "address": "11300 Greenstone Avenue", "city": "Santa Fe Springs", "zip": "90670-4619", "department": "Santa Fe Springs Fire Department", "stanum": "1" }, "geometry": { "type": "Point", "coordinates": [ -118.057752046345996, 33.928526452878998 ] } },
{ "type": "Feature", "properties": { "address": "2100 East Ocean Boulevard", "city": "Long Beach", "zip": "90803", "department": "Long Beach Fire Department", "stanum": null }, "geometry": { "type": "Point", "coordinates": [ -118.168198450562002, 33.763001628334699 ] } },
{ "type": "Feature", "properties": { "address": "7419 Reseda Boulevard", "city": "Reseda", "zip": "91335", "department": "LAFD", "stanum": "73" }, "geometry": { "type": "Point", "coordinates": [ -118.536444028763, 34.205330580632001 ] } },
{ "type": "Feature", "properties": { "address": "2401 East Wardlow Road", "city": "Long Beach", "zip": "90807", "department": "Boeing Fire Department", "stanum": null }, "geometry": { "type": "Point", "coordinates": [ -118.164822699908996, 33.818641300354301 ] } },
{ "type": "Feature", "properties": { "address": "421 Oak Street", "city": "Glendale", "zip": "91204", "department": "Glendale Fire Department", "stanum": "21" }, "geometry": { "type": "Point", "coordinates": [ -118.261306763256997, 34.143665313858797 ] } },
{ "type": "Feature", "properties": { "address": "9411 Wentworth Street", "city": "Sunland", "zip": "91040", "department": "LAFD", "stanum": "24" }, "geometry": { "type": "Point", "coordinates": [ -118.336874000544995, 34.263996000426197 ] } },
{ "type": "Feature", "properties": { "address": "115 North Del Mar Avenue", "city": "San Gabriel", "zip": "91775", "department": "San Gabriel Fire Department", "stanum": "2" }, "geometry": { "type": "Point", "coordinates": [ -118.100072047886997, 34.103538386155897 ] } },
{ "type": "Feature", "properties": { "address": "1815 South Azusa Avenue", "city": "West Covina", "zip": "91791", "department": "West Covina Fire Department", "stanum": "4" }, "geometry": { "type": "Point", "coordinates": [ -117.911698883525005, 34.043015077729599 ] } },
{ "type": "Feature", "properties": { "address": "4029 West Wilshire Boulevard", "city": "Los Angeles", "zip": "90005-3401", "department": "LAFD", "stanum": "29" }, "geometry": { "type": "Point", "coordinates": [ -118.315772199880001, 34.062084853448297 ] } },
{ "type": "Feature", "properties": { "address": "1100 Coldwater Canyon Drive", "city": "Beverly Hills", "zip": "90210", "department": "Beverly Hills Fire Department", "stanum": "2" }, "geometry": { "type": "Point", "coordinates": [ -118.411598204941001, 34.090335845708502 ] } },
{ "type": "Feature", "properties": { "address": "1601 South Grand Avenue", "city": "San Pedro", "zip": "90731", "department": "LAFD", "stanum": "48" }, "geometry": { "type": "Point", "coordinates": [ -118.290503481957998, 33.729444556025399 ] } },
{ "type": "Feature", "properties": { "address": "107 South Beverly Glen Boulevard", "city": "Los Angeles", "zip": "90024-2613", "department": "LAFD", "stanum": "71" }, "geometry": { "type": "Point", "coordinates": [ -118.435342000334998, 34.080250998702603 ] } },
{ "type": "Feature", "properties": { "address": "1145 North Brand Boulevard", "city": "Glendale", "zip": "91202", "department": "Glendale Fire Department", "stanum": "26" }, "geometry": { "type": "Point", "coordinates": [ -118.255523680690999, 34.163158416637899 ] } },
{ "type": "Feature", "properties": { "address": "3559 Clark Avenue", "city": "Long Beach", "zip": "90808", "department": "Long Beach Fire Department", "stanum": "19" }, "geometry": { "type": "Point", "coordinates": [ -118.134355619453004, 33.822710270086397 ] } },
{ "type": "Feature", "properties": { "address": "1601 South Santa Fe Avenue", "city": "Los Angeles", "zip": "90021", "department": "LAFD", "stanum": "17" }, "geometry": { "type": "Point", "coordinates": [ -118.230323791939, 34.0252494812256 ] } },
{ "type": "Feature", "properties": { "address": "7063 Laurel Canyon Boulevard", "city": "North Hollywood", "zip": "91605", "department": "LAFD", "stanum": "89" }, "geometry": { "type": "Point", "coordinates": [ -118.396857890467999, 34.199245556631602 ] } },
{ "type": "Feature", "properties": { "address": "1900 Pier D Street", "city": "Long Beach", "zip": "90802", "department": "Long Beach Fire Department", "stanum": "20" }, "geometry": { "type": "Point", "coordinates": [ -118.220182970284, 33.765297494037299 ] } },
{ "type": "Feature", "properties": { "address": "23004 Roscoe Boulevard", "city": "West Hills", "zip": "91304-3230", "department": "LAFD", "stanum": "106" }, "geometry": { "type": "Point", "coordinates": [ -118.628054764675994, 34.2190520518296 ] } },
{ "type": "Feature", "properties": { "address": "124 East I Street", "city": "Wilmington", "zip": "90744", "department": "LAFD", "stanum": "38" }, "geometry": { "type": "Point", "coordinates": [ -118.261695861779998, 33.7810821541919 ] } },
{ "type": "Feature", "properties": { "address": "1556 South Robertson Boulevard", "city": "Los Angeles", "zip": "90035", "department": "LAFD", "stanum": "58" }, "geometry": { "type": "Point", "coordinates": [ -118.384011108091002, 34.0507516439827 ] } },
{ "type": "Feature", "properties": { "address": "222 Hollister Avenue", "city": "Santa Monica", "zip": "90405-3421", "department": "Santa Monica Fire Department", "stanum": "2" }, "geometry": { "type": "Point", "coordinates": [ -118.484599746537, 34.004605945789599 ] } },
{ "type": "Feature", "properties": { "address": "2144 West Sunset Boulevard", "city": "Los Angeles", "zip": "90026", "department": "LAFD", "stanum": "20" }, "geometry": { "type": "Point", "coordinates": [ -118.265332186452, 34.077214870559999 ] } },
{ "type": "Feature", "properties": { "address": "Old Ridge Route Road and Pine Canyon Road", "city": "Antelope Valley", "zip": "93532", "department": "United States Forest Service Angeles National Forest", "stanum": null }, "geometry": { "type": "Point", "coordinates": [ -118.712503324294005, 34.744288203888203 ] } },
{ "type": "Feature", "properties": { "address": "2424 East Villa Street", "city": "Pasadena", "zip": "91107", "department": "Pasadena Fire Department", "stanum": "32" }, "geometry": { "type": "Point", "coordinates": [ -118.100288390990997, 34.154117584302398 ] } },
{ "type": "Feature", "properties": { "address": "4960 Balboa Boulevard", "city": "Encino", "zip": "91316", "department": "LAFD", "stanum": "83" }, "geometry": { "type": "Point", "coordinates": [ -118.500697426513995, 34.160936398897199 ] } },
{ "type": "Feature", "properties": { "address": "1417 Peterson Avenue", "city": "Long Beach", "zip": "90813", "department": "Long Beach Fire Department", "stanum": "10" }, "geometry": { "type": "Point", "coordinates": [ -118.173385853804007, 33.784852030377003 ] } },
{ "type": "Feature", "properties": { "address": "1150 Linda Vista Avenue", "city": "Pasadena", "zip": "91103", "department": "Pasadena Fire Department", "stanum": "38" }, "geometry": { "type": "Point", "coordinates": [ -118.176094054599005, 34.166770935426698 ] } },
{ "type": "Feature", "properties": { "address": "10811 South Main Street", "city": "Los Angeles", "zip": "90061", "department": "LAFD", "stanum": "64" }, "geometry": { "type": "Point", "coordinates": [ -118.274186826651004, 33.937988234777102 ] } },
{ "type": "Feature", "properties": { "address": "12222 Paramount Boulevard", "city": "Downey", "zip": "90242", "department": "Downey Fire Department", "stanum": "1" }, "geometry": { "type": "Point", "coordinates": [ -118.147461960767004, 33.929428047622402 ] } },
{ "type": "Feature", "properties": { "address": "11736 East Telegraph Road", "city": "Santa Fe Springs", "zip": "90670", "department": "Santa Fe Springs Fire Department", "stanum": "4" }, "geometry": { "type": "Point", "coordinates": [ -118.083155152255998, 33.945764453614999 ] } },
{ "type": "Feature", "properties": { "address": "320 West Newmark Avenue", "city": "Monterey Park", "zip": "91754", "department": "Monterey Park Fire Department", "stanum": "61" }, "geometry": { "type": "Point", "coordinates": [ -118.127192001332006, 34.059564999760497 ] } },
{ "type": "Feature", "properties": { "address": "2055 South Myrtle Avenue", "city": "Monrovia", "zip": "91016-4836", "department": "Monrovia Fire Department", "stanum": "102" }, "geometry": { "type": "Point", "coordinates": [ -118.001956453147002, 34.127096478088902 ] } },
{ "type": "Feature", "properties": { "address": "15045 Sunset Boulevard", "city": "Pacific Palisades", "zip": "90272", "department": "LAFD", "stanum": "69" }, "geometry": { "type": "Point", "coordinates": [ -118.522491456102003, 34.045059203622202 ] } },
{ "type": "Feature", "properties": { "address": "4455 East York Boulevard", "city": "Eagle Rock", "zip": "90041", "department": "LAFD", "stanum": "55" }, "geometry": { "type": "Point", "coordinates": [ -118.218548395876994, 34.123967404701197 ] } },
{ "type": "Feature", "properties": { "address": "32300 San Francisquito Canyon Road", "city": "Santa Clarita", "zip": "91390", "department": "United States Forest Service Angeles National Forest", "stanum": null }, "geometry": { "type": "Point", "coordinates": [ -118.525945999718999, 34.533410000295497 ] } },
{ "type": "Feature", "properties": { "address": "430 East 7th Street", "city": "Los Angeles", "zip": "90014", "department": "LAFD", "stanum": "9" }, "geometry": { "type": "Point", "coordinates": [ -118.247912181139995, 34.041174868349998 ] } },
{ "type": "Feature", "properties": { "address": "4410 New York Avenue", "city": "Glendale", "zip": "91214", "department": "Glendale Fire Department", "stanum": "28" }, "geometry": { "type": "Point", "coordinates": [ -118.252738952358001, 34.230091095230499 ] } },
{ "type": "Feature", "properties": { "address": "1215 South 6th Street", "city": "Alhambra", "zip": "91801", "department": "Alhambra Fire Department", "stanum": "72" }, "geometry": { "type": "Point", "coordinates": [ -118.129611758468002, 34.078798408272498 ] } },
{ "type": "Feature", "properties": { "address": "2945 Miner Street, Berth 44-A", "city": "San Pedro", "zip": "90731", "department": "LAFD", "stanum": "110" }, "geometry": { "type": "Point", "coordinates": [ -118.276091164725003, 33.717024816693197 ] } },
{ "type": "Feature", "properties": { "address": "14355 Arminta Street", "city": "Los Angeles", "zip": "91402", "department": "LAFD", "stanum": "81" }, "geometry": { "type": "Point", "coordinates": [ -118.444611633803007, 34.213172661977701 ] } },
{ "type": "Feature", "properties": { "address": "2001 South Garfield Avenue", "city": "Monterey Park", "zip": "91754", "department": "Monterey Park Fire Department", "stanum": "62" }, "geometry": { "type": "Point", "coordinates": [ -118.129488632527995, 34.040846102317701 ] } },
{ "type": "Feature", "properties": { "address": "2261 Mariposa Avenue", "city": "El Segundo", "zip": "90245", "department": "EL Segundo Fire Department", "stanum": "2" }, "geometry": { "type": "Point", "coordinates": [ -118.384910600520996, 33.924061734162002 ] } },
{ "type": "Feature", "properties": { "address": "4785 Wheeler Avenue", "city": "La Verne", "zip": "91750-1960", "department": "La Verne Fire Department", "stanum": "2" }, "geometry": { "type": "Point", "coordinates": [ -117.777318413705004, 34.125215090894301 ] } },
{ "type": "Feature", "properties": { "address": "2061 3rd Street", "city": "La Verne", "zip": "91750", "department": "La Verne Fire Department", "stanum": "1" }, "geometry": { "type": "Point", "coordinates": [ -117.771451487155005, 34.101128634901499 ] } },
{ "type": "Feature", "properties": { "address": "9600 Culver Boulevard", "city": "Culver City", "zip": "90232-2711", "department": "Culver City Fire Department", "stanum": "1" }, "geometry": { "type": "Point", "coordinates": [ -118.394996999911001, 34.022590999556698 ] } },
{ "type": "Feature", "properties": { "address": "1410 Cypress Avenue", "city": "Los Angeles", "zip": "90065-1256", "department": "LAFD", "stanum": "44" }, "geometry": { "type": "Point", "coordinates": [ -118.231155395703993, 34.097015381179503 ] } },
{ "type": "Feature", "properties": { "address": "6751 Louise Avenue", "city": "Van Nuys", "zip": "91406-5441", "department": "LAFD", "stanum": "100" }, "geometry": { "type": "Point", "coordinates": [ -118.510191644238006, 34.193029955596202 ] } },
{ "type": "Feature", "properties": { "address": "9900 Paramount Boulevard", "city": "Downey", "zip": "90240", "department": "Downey Fire Department", "stanum": "3" }, "geometry": { "type": "Point", "coordinates": [ -118.128316059498005, 33.955312752226099 ] } },
{ "type": "Feature", "properties": { "address": "2241 Argonne Avenue", "city": "Long Beach", "zip": "90815", "department": "Long Beach Fire Department", "stanum": "17" }, "geometry": { "type": "Point", "coordinates": [ -118.136468797440997, 33.797955431556801 ] } },
{ "type": "Feature", "properties": { "address": "3401 South Central Avenue", "city": "Los Angeles", "zip": "90011", "department": "LAFD", "stanum": "14" }, "geometry": { "type": "Point", "coordinates": [ -118.256862186465995, 34.012544851449398 ] } },
{ "type": "Feature", "properties": { "address": "2505 West Norwood Place", "city": "Alhambra", "zip": "91803", "department": "Alhambra Fire Department", "stanum": "74" }, "geometry": { "type": "Point", "coordinates": [ -118.151144167306001, 34.075743287224498 ] } },
{ "type": "Feature", "properties": { "address": "1201 South Glendale Avenue", "city": "Glendale", "zip": "91205", "department": "Glendale Fire Department", "stanum": "22" }, "geometry": { "type": "Point", "coordinates": [ -118.252555846971006, 34.1319847102314 ] } },
{ "type": "Feature", "properties": { "address": "301 North 1st Street", "city": "Alhambra", "zip": "91801", "department": "Alhambra Fire Department", "stanum": "71" }, "geometry": { "type": "Point", "coordinates": [ -118.130051999532995, 34.097215000357799 ] } },
{ "type": "Feature", "properties": { "address": "2230 Pasadena Avenue", "city": "Los Angeles", "zip": "90031", "department": "LAFD", "stanum": "1" }, "geometry": { "type": "Point", "coordinates": [ -118.217717200489005, 34.075411400311602 ] } },
{ "type": "Feature", "properties": { "address": "100 Magnolia Avenue", "city": "Long Beach", "zip": "90802", "department": "Long Beach Fire Department", "stanum": "1" }, "geometry": { "type": "Point", "coordinates": [ -118.197418835150003, 33.768736898404299 ] } },
{ "type": "Feature", "properties": { "address": "704 Monterey Pass Road", "city": "Monterey Park", "zip": "91754", "department": "Monterey Park Fire Department", "stanum": "63" }, "geometry": { "type": "Point", "coordinates": [ -118.151257000254006, 34.052702000270898 ] } },
{ "type": "Feature", "properties": { "address": "500 South Buena Vista Street", "city": "Burbank", "zip": "91505", "department": "Walt Disney Studios Fire Department", "stanum": null }, "geometry": { "type": "Point", "coordinates": [ -118.326494000053003, 34.155575000343802 ] } },
{ "type": "Feature", "properties": { "address": "Pier F Avenue Berth 202", "city": "Long Beach", "zip": "90802", "department": "Long Beach Fire Department", "stanum": "15" }, "geometry": { "type": "Point", "coordinates": [ -118.214866815622997, 33.746920736359797 ] } },
{ "type": "Feature", "properties": { "address": "1819 West 7th Street", "city": "Los Angeles", "zip": "90057", "department": "LAFD", "stanum": "11" }, "geometry": { "type": "Point", "coordinates": [ -118.273953791802995, 34.055443955225897 ] } },
{ "type": "Feature", "properties": { "address": "1444 South Seaside Avenue Berth 256", "city": "Terminal Island", "zip": "90731", "department": "LAFD", "stanum": "111" }, "geometry": { "type": "Point", "coordinates": [ -118.268064087840997, 33.730049986856898 ] } },
{ "type": "Feature", "properties": { "address": "11351 Tampa Avenue", "city": "Northridge", "zip": "91326-1729", "department": "LAFD", "stanum": "8" }, "geometry": { "type": "Point", "coordinates": [ -118.559723858484006, 34.277290662766603 ] } },
{ "type": "Feature", "properties": { "address": "6406 South Main Street", "city": "Los Angeles", "zip": "90003", "department": "LAFD", "stanum": "33" }, "geometry": { "type": "Point", "coordinates": [ -118.273695085624993, 33.9812611469928 ] } },
{ "type": "Feature", "properties": { "address": "4575 Huntington Drive South", "city": "Los Angeles", "zip": "90032-1940", "department": "LAFD", "stanum": "47" }, "geometry": { "type": "Point", "coordinates": [ -118.186925280151002, 34.085421262804203 ] } },
{ "type": "Feature", "properties": { "address": "400 15th Street", "city": "Manhattan Beach", "zip": "90266", "department": "Manhattan Beach Fire Department", "stanum": "1" }, "geometry": { "type": "Point", "coordinates": [ -118.409453200580998, 33.887810628180098 ] } },
{ "type": "Feature", "properties": { "address": "3917 Long Beach Boulevard", "city": "Long Beach", "zip": "90807", "department": "Long Beach Fire Department", "stanum": "9" }, "geometry": { "type": "Point", "coordinates": [ -118.189640876382001, 33.829695610611303 ] } },
{ "type": "Feature", "properties": { "address": "10201 West Pico Boulevard", "city": "Los Angeles", "zip": "90064", "department": "Fox Studios Fire Department", "stanum": null }, "geometry": { "type": "Point", "coordinates": [ -118.411048890022002, 34.050159453803502 ] } },
{ "type": "Feature", "properties": { "address": "10435 Sepulveda Boulevard", "city": "Los Angeles", "zip": "90045", "department": "LAFD", "stanum": "51" }, "geometry": { "type": "Point", "coordinates": [ -118.395550502990005, 33.933110334819403 ] } },
{ "type": "Feature", "properties": { "address": "8021 Mulholland Drive", "city": "Los Angeles", "zip": "90046", "department": "LAFD", "stanum": "97" }, "geometry": { "type": "Point", "coordinates": [ -118.374462716197002, 34.126183488787902 ] } },
{ "type": "Feature", "properties": { "address": "2021 Colorado Boulevard", "city": "Los Angeles", "zip": "90041", "department": "LAFD", "stanum": "42" }, "geometry": { "type": "Point", "coordinates": [ -118.210942182311996, 34.139504880769501 ] } },
{ "type": "Feature", "properties": { "address": "1303 South Del Mar Avenue", "city": "San Gabriel", "zip": "91776", "department": "San Gabriel Fire Department", "stanum": "1" }, "geometry": { "type": "Point", "coordinates": [ -118.099972158911001, 34.084264880966501 ] } },
{ "type": "Feature", "properties": { "address": "12050 Balboa Boulevard", "city": "Granada Hills", "zip": "91344-1701", "department": "LAFD", "stanum": "18" }, "geometry": { "type": "Point", "coordinates": [ -118.501267049844998, 34.289734167062001 ] } },
{ "type": "Feature", "properties": { "address": "9861 Reseda Boulevard", "city": "Northridge", "zip": "91324-2036", "department": "LAFD", "stanum": "70" }, "geometry": { "type": "Point", "coordinates": [ -118.536491652731002, 34.249791660600799 ] } },
{ "type": "Feature", "properties": { "address": "1414 25th Street", "city": "Los Angeles", "zip": "90732", "department": "LAFD", "stanum": "101" }, "geometry": { "type": "Point", "coordinates": [ -118.310302172239005, 33.721897825983099 ] } },
{ "type": "Feature", "properties": { "address": "2713 Thornton Avenue", "city": "Burbank", "zip": "91504", "department": "Burbank Fire Department", "stanum": "13" }, "geometry": { "type": "Point", "coordinates": [ -118.341132330901004, 34.195847111011297 ] } },
{ "type": "Feature", "properties": { "address": "72050 World Way", "city": "Los Angeles", "zip": "90045", "department": "LAFD", "stanum": "80" }, "geometry": { "type": "Point", "coordinates": [ -118.419465107145001, 33.940658734208803 ] } },
{ "type": "Feature", "properties": { "address": "10556 West Pico Boulevard", "city": "Los Angeles", "zip": "90064", "department": "LAFD", "stanum": "92" }, "geometry": { "type": "Point", "coordinates": [ -118.420432602825997, 34.044009862674599 ] } },
{ "type": "Feature", "properties": { "address": "14415 Sylvan Street", "city": "Los Angeles", "zip": "91401", "department": "LAFD", "stanum": "39" }, "geometry": { "type": "Point", "coordinates": [ -118.447172232438007, 34.184914859271302 ] } },
{ "type": "Feature", "properties": { "address": "1127 Western Avenue", "city": "Glendale", "zip": "91201", "department": "Glendale Fire Department", "stanum": "27" }, "geometry": { "type": "Point", "coordinates": [ -118.289077759533996, 34.172088623376702 ] } },
{ "type": "Feature", "properties": { "address": "817 Mound Avenue", "city": "South Pasadena", "zip": "91030", "department": "South Pasadena Fire Department", "stanum": null }, "geometry": { "type": "Point", "coordinates": [ -118.152022000201001, 34.116374999944199 ] } },
{ "type": "Feature", "properties": { "address": "5101 North Sepulveda Boulevard", "city": "Los Angeles", "zip": "91403", "department": "LAFD", "stanum": "88" }, "geometry": { "type": "Point", "coordinates": [ -118.466508233591, 34.162937455882201 ] } },
{ "type": "Feature", "properties": { "address": "12229 West Sunset Boulevard", "city": "Los Angeles", "zip": "90049-4013", "department": "LAFD", "stanum": "19" }, "geometry": { "type": "Point", "coordinates": [ -118.479539253327005, 34.058560372882198 ] } },
{ "type": "Feature", "properties": { "address": "1245 North Hacienda Road", "city": "La Habra Heights", "zip": "90631", "department": "La Habra Heights Fire Department", "stanum": null }, "geometry": { "type": "Point", "coordinates": [ -117.965693532035004, 33.947260959735203 ] } },
{ "type": "Feature", "properties": { "address": "1360 East Del Mar Boulevard", "city": "Pasadena", "zip": "91106", "department": "Pasadena Fire Department", "stanum": "34" }, "geometry": { "type": "Point", "coordinates": [ -118.122328559891002, 34.141209878259303 ] } },
{ "type": "Feature", "properties": { "address": "5365 East 2nd Street", "city": "Long Beach", "zip": "90803", "department": "Long Beach Fire Department", "stanum": "8" }, "geometry": { "type": "Point", "coordinates": [ -118.130818538257003, 33.758840273397198 ] } },
{ "type": "Feature", "properties": { "address": "5555 Melrose Avenue", "city": "Hollywood", "zip": "90038", "department": "Paramount Fire Department", "stanum": null }, "geometry": { "type": "Point", "coordinates": [ -118.319595336953, 34.083805084559899 ] } },
{ "type": "Feature", "properties": { "address": "111 Pier S Avenue", "city": "Long Beach", "zip": "90802", "department": "Long Beach Fire Department", "stanum": "24" }, "geometry": { "type": "Point", "coordinates": [ -118.241794063125994, 33.758704022947299 ] } },
{ "type": "Feature", "properties": { "address": "3690 Motor Avenue", "city": "Los Angeles", "zip": "90034-5702", "department": "LAFD", "stanum": "43" }, "geometry": { "type": "Point", "coordinates": [ -118.405565756499001, 34.023130629094297 ] } },
{ "type": "Feature", "properties": { "address": "1302 19th Street", "city": "Santa Monica", "zip": "90404-1941", "department": "Santa Monica Fire Department", "stanum": "3" }, "geometry": { "type": "Point", "coordinates": [ -118.482542030445003, 34.028922651233003 ] } },
{ "type": "Feature", "properties": { "address": "2475 Adriatic Avenue", "city": "Long Beach", "zip": "90810", "department": "Long Beach Fire Department", "stanum": "13" }, "geometry": { "type": "Point", "coordinates": [ -118.214675500685004, 33.802165200093199 ] } },
{ "type": "Feature", "properties": { "address": "15517 Carmenita Road", "city": "Santa Fe Springs", "zip": "90670-5609", "department": "Santa Fe Springs Fire Department", "stanum": "3" }, "geometry": { "type": "Point", "coordinates": [ -118.046942040817001, 33.889249448314096 ] } },
{ "type": "Feature", "properties": { "address": "19059 Ventura Boulevard", "city": "Tarzana", "zip": "91356", "department": "LAFD", "stanum": "93" }, "geometry": { "type": "Point", "coordinates": [ -118.549257187560002, 34.172888246371699 ] } },
{ "type": "Feature", "properties": { "address": "9556 Imperial Highway", "city": "Downey", "zip": "90242", "department": "Downey Fire Department", "stanum": "2" }, "geometry": { "type": "Point", "coordinates": [ -118.123398356368, 33.916704547626097 ] } },
{ "type": "Feature", "properties": { "address": "1701 Crenshaw Boulevard", "city": "Torrance", "zip": "90501", "department": "Torrance Fire Department", "stanum": "1" }, "geometry": { "type": "Point", "coordinates": [ -118.328952177011999, 33.8308948407564 ] } },
{ "type": "Feature", "properties": { "address": "4000 Warner Boulevard", "city": "Burbank", "zip": "91522", "department": "Warner Brothers Studios Fire Department", "stanum": null }, "geometry": { "type": "Point", "coordinates": [ -118.340544999583997, 34.149695999924703 ] } },
{ "type": "Feature", "properties": { "address": "5769 Hollywood Boulevard", "city": "Los Angeles", "zip": "90028", "department": "LAFD", "stanum": "82" }, "geometry": { "type": "Point", "coordinates": [ -118.315479400442996, 34.102014700001398 ] } },
{ "type": "Feature", "properties": { "address": "1166 South Greenwood Avenue", "city": "Montebello", "zip": "90640", "department": "Montebello Fire Department", "stanum": "56" }, "geometry": { "type": "Point", "coordinates": [ -118.121209562195006, 33.991203256966699 ] } },
{ "type": "Feature", "properties": { "address": "2950 West Via Acosta", "city": "Montebello", "zip": "90640", "department": "Montebello Fire Department", "stanum": "3" }, "geometry": { "type": "Point", "coordinates": [ -118.134992167166999, 34.024044858660297 ] } },
{ "type": "Feature", "properties": { "address": "3430 East Foothill Boulevard", "city": "Pasadena", "zip": "91107", "department": "Pasadena Fire Department", "stanum": "37" }, "geometry": { "type": "Point", "coordinates": [ -118.079338073521001, 34.149810790711797 ] } },
{ "type": "Feature", "properties": { "address": "2200 Huntington Drive", "city": "San Marino", "zip": "91108", "department": "San Marino Fire Department", "stanum": null }, "geometry": { "type": "Point", "coordinates": [ -118.105663999642005, 34.1214500002935 ] } },
{ "type": "Feature", "properties": { "address": "6340 Atherton Street", "city": "Long Beach", "zip": "90815", "department": "Long Beach Fire Department", "stanum": "22" }, "geometry": { "type": "Point", "coordinates": [ -118.109016901448996, 33.788382001447097 ] } },
{ "type": "Feature", "properties": { "address": "2927 Whittier Boulevard", "city": "Los Angeles", "zip": "90023-1528", "department": "LAFD", "stanum": "25" }, "geometry": { "type": "Point", "coordinates": [ -118.207711978543003, 34.031031756353102 ] } },
{ "type": "Feature", "properties": { "address": "12371 Little Tujunga Canyon Road", "city": "Sylmar", "zip": "91342", "department": "United States Forest Service Angeles National Forest", "stanum": null }, "geometry": { "type": "Point", "coordinates": [ -118.361098766419005, 34.294683989248398 ] } },
{ "type": "Feature", "properties": { "address": "2400 Grant Avenue", "city": "Redondo Beach", "zip": "90278", "department": "Redondo Beach Fire Department", "stanum": "2" }, "geometry": { "type": "Point", "coordinates": [ -118.368232727305994, 33.868778228638298 ] } },
{ "type": "Feature", "properties": { "address": "450 East Temple Street", "city": "Los Angeles", "zip": "90012", "department": "LAFD", "stanum": "4" }, "geometry": { "type": "Point", "coordinates": [ -118.235760126147994, 34.050051031339699 ] } },
{ "type": "Feature", "properties": { "address": "21401 Del Amo Circle West", "city": "Torrance", "zip": "90503", "department": "Torrance Fire Department", "stanum": "6" }, "geometry": { "type": "Point", "coordinates": [ -118.355865415249994, 33.833631937838497 ] } },
{ "type": "Feature", "properties": { "address": "2009 South Western Avenue", "city": "Los Angeles", "zip": "90018-1540", "department": "LAFD", "stanum": "26" }, "geometry": { "type": "Point", "coordinates": [ -118.309292196485004, 34.038464850743303 ] } },
{ "type": "Feature", "properties": { "address": "6345 Fallbrook Avenue", "city": "Woodland Hills", "zip": "91367", "department": "LAFD", "stanum": "105" }, "geometry": { "type": "Point", "coordinates": [ -118.623774752703, 34.185741373744399 ] } },
{ "type": "Feature", "properties": { "address": "330 Ferry Street", "city": "Terminal Island", "zip": "90731", "department": "LAFD", "stanum": "40" }, "geometry": { "type": "Point", "coordinates": [ -118.261344910209004, 33.746780395886198 ] } },
{ "type": "Feature", "properties": { "address": "444 South Harbor Boulevard, Berth 86", "city": "San Pedro", "zip": "90731", "department": "LAFD", "stanum": "112" }, "geometry": { "type": "Point", "coordinates": [ -118.278461668391003, 33.740652718711203 ] } },
{ "type": "Feature", "properties": { "address": "1140 North Fair Oaks Avenue", "city": "Pasadena", "zip": "91103", "department": "Pasadena Fire Department", "stanum": "36" }, "geometry": { "type": "Point", "coordinates": [ -118.150337219310998, 34.165431975559898 ] } },
{ "type": "Feature", "properties": { "address": "1433 West Puente Avenue", "city": "West Covina", "zip": "91790", "department": "West Covina Fire Department", "stanum": "3" }, "geometry": { "type": "Point", "coordinates": [ -117.936104490264, 34.083144520939797 ] } },
{ "type": "Feature", "properties": { "address": "6030 Bristol Parkway", "city": "Culver City", "zip": "90230", "department": "Culver City Fire Department", "stanum": "3" }, "geometry": { "type": "Point", "coordinates": [ -118.386512755620004, 33.986145019170102 ] } },
{ "type": "Feature", "properties": { "address": "18030 South Vermont Avenue", "city": "Gardena", "zip": "90248", "department": "LAFD", "stanum": "79" }, "geometry": { "type": "Point", "coordinates": [ -118.290369080217999, 33.867593031715501 ] } },
{ "type": "Feature", "properties": { "address": "3661 7th Avenue", "city": "Los Angeles", "zip": "90018-4107", "department": "LAFD", "stanum": "34" }, "geometry": { "type": "Point", "coordinates": [ -118.325092198001997, 34.0212548478965 ] } },
{ "type": "Feature", "properties": { "address": "1439 North Gardner Street", "city": "Los Angeles", "zip": "90046", "department": "LAFD", "stanum": "41" }, "geometry": { "type": "Point", "coordinates": [ -118.353112203121, 34.097246890812997 ] } },
{ "type": "Feature", "properties": { "address": "16500 Mulholland Drive", "city": "Los Angeles", "zip": "90049", "department": "LAFD", "stanum": "109" }, "geometry": { "type": "Point", "coordinates": [ -118.492138250531994, 34.130705733593999 ] } },
{ "type": "Feature", "properties": { "address": "25135 Robinson Way", "city": "Torrance", "zip": "90505", "department": "Torrance Fire Department", "stanum": "2" }, "geometry": { "type": "Point", "coordinates": [ -118.337954120469007, 33.796589417312703 ] } },
{ "type": "Feature", "properties": { "address": "314 Main Street", "city": "El Segundo", "zip": "90245", "department": "El Segundo Fire Department", "stanum": "1" }, "geometry": { "type": "Point", "coordinates": [ -118.415542603326003, 33.919628143683099 ] } },
{ "type": "Feature", "properties": { "address": "1734 Canada Boulevard", "city": "Glendale", "zip": "91208", "department": "Glendale Fire Department", "stanum": "24" }, "geometry": { "type": "Point", "coordinates": [ -118.228607178378994, 34.173324585049997 ] } },
{ "type": "Feature", "properties": { "address": "5921 North Figueroa Street", "city": "Los Angeles", "zip": "90042-4229", "department": "LAFD", "stanum": "12" }, "geometry": { "type": "Point", "coordinates": [ -118.190271782574996, 34.111099366019602 ] } },
{ "type": "Feature", "properties": { "address": "3535 West 182nd Street", "city": "Torrance", "zip": "90504", "department": "Torrance Fire Department", "stanum": "3" }, "geometry": { "type": "Point", "coordinates": [ -118.333878521195999, 33.865866118235402 ] } },
{ "type": "Feature", "properties": { "address": "9349 Florence Avenue", "city": "Downey", "zip": "90240", "department": "Downey Fire Department", "stanum": "4" }, "geometry": { "type": "Point", "coordinates": [ -118.108754656238006, 33.943587751965701 ] } },
{ "type": "Feature", "properties": { "address": "11252 Washington Boulevard", "city": "Culver City", "zip": "90230-4616", "department": "Culver City Fire Department", "stanum": "2" }, "geometry": { "type": "Point", "coordinates": [ -118.413750000174005, 34.005122999590199 ] } },
{ "type": "Feature", "properties": { "address": "44750 60th Street West", "city": "Lancaster", "zip": "93536-7619", "department": "California State Prison - LACoFD", "stanum": null }, "geometry": { "type": "Point", "coordinates": [ -118.227722938924003, 34.696267327664501 ] } },
{ "type": "Feature", "properties": { "address": "1444 7th Street", "city": "Santa Monica", "zip": "90401", "department": "Santa Monica Fire Department", "stanum": "1" }, "geometry": { "type": "Point", "coordinates": [ -118.491592408350002, 34.017753600814601 ] } },
{ "type": "Feature", "properties": { "address": "29835 Valyermo Road", "city": "Valyermo", "zip": "93544", "department": "United States Forest Service Angeles National Forest", "stanum": null }, "geometry": { "type": "Point", "coordinates": [ -117.851884053640006, 34.444688422028101 ] } },
{ "type": "Feature", "properties": { "address": "201 South Acacia Avenue", "city": "Compton", "zip": "90220", "department": "Compton Fire Department", "stanum": "1" }, "geometry": { "type": "Point", "coordinates": [ -118.226778470745998, 33.894915240084003 ] } },
{ "type": "Feature", "properties": { "address": "11505 West Olympic Boulevard", "city": "Los Angeles", "zip": "90064", "department": "LAFD", "stanum": "59" }, "geometry": { "type": "Point", "coordinates": [ -118.444534300529, 34.036632538231103 ] } },
{ "type": "Feature", "properties": { "address": "1 Hornet Way", "city": "El Segundo", "zip": "90245", "department": "Northrop Grumman Corporation Fire Department", "stanum": null }, "geometry": { "type": "Point", "coordinates": [ -118.379530000214999, 33.920643000228097 ] } },
{ "type": "Feature", "properties": { "address": "4927 Melrose Avenue", "city": "Los Angeles", "zip": "90029-3731", "department": "LAFD", "stanum": "52" }, "geometry": { "type": "Point", "coordinates": [ -118.308036803497998, 34.083770751717701 ] } },
{ "type": "Feature", "properties": { "address": "2650 East Shadow Oak Drive", "city": "West Covina", "zip": "91792", "department": "West Covina Fire Department", "stanum": "5" }, "geometry": { "type": "Point", "coordinates": [ -117.890477574111003, 34.019824334142299 ] } },
{ "type": "Feature", "properties": { "address": "17281 Sunset Boulevard", "city": "Los Angeles", "zip": "90272", "department": "LAFD", "stanum": "23" }, "geometry": { "type": "Point", "coordinates": [ -118.554411000021005, 34.0422760004043 ] } },
{ "type": "Feature", "properties": { "address": "14145 Mulholland Drive", "city": "Beverly Hills", "zip": "90210", "department": "LAFD", "stanum": "99" }, "geometry": { "type": "Point", "coordinates": [ -118.440391395869, 34.131804163296998 ] } },
{ "type": "Feature", "properties": { "address": "4470 Coliseum Street", "city": "Los Angeles", "zip": "90016-5734", "department": "LAFD", "stanum": "94" }, "geometry": { "type": "Point", "coordinates": [ -118.345452201501999, 34.017574847219002 ] } },
{ "type": "Feature", "properties": { "address": "8349 Winnetka Avenue", "city": "Canoga Park", "zip": "91306-1630", "department": "LAFD", "stanum": "104" }, "geometry": { "type": "Point", "coordinates": [ -118.571359156309995, 34.221658455579998 ] } },
{ "type": "Feature", "properties": { "address": "2800 Soto Street", "city": "Los Angeles", "zip": "90023", "department": "Vernon Fire Department", "stanum": "3" }, "geometry": { "type": "Point", "coordinates": [ -118.219387079502994, 34.0118648529685 ] } },
{ "type": "Feature", "properties": { "address": "819 South Sunset Avenue", "city": "West Covina", "zip": "91790", "department": "West Covina Fire Department", "stanum": "1" }, "geometry": { "type": "Point", "coordinates": [ -117.941063742425996, 34.066712769007303 ] } },
{ "type": "Feature", "properties": { "address": "324 West El Segundo Boulevard", "city": "El Segundo", "zip": "90245", "department": "Chevron Fire Department", "stanum": null }, "geometry": { "type": "Point", "coordinates": [ -118.415870667445006, 33.915138244251096 ] } },
{ "type": "Feature", "properties": { "address": "1005 North Gaffey Street", "city": "San Pedro", "zip": "90731", "department": "LAFD", "stanum": "36" }, "geometry": { "type": "Point", "coordinates": [ -118.293335834293998, 33.753150949999899 ] } },
{ "type": "Feature", "properties": { "address": "1090 Veteran Avenue", "city": "Los Angeles", "zip": "90024-2704", "department": "LAFD", "stanum": "37" }, "geometry": { "type": "Point", "coordinates": [ -118.448961000170996, 34.059738999908298 ] } },
{ "type": "Feature", "properties": { "address": "2441 East Cortez Street", "city": "West Covina", "zip": "91791", "department": "West Covina Fire Department", "stanum": "2" }, "geometry": { "type": "Point", "coordinates": [ -117.893136256831994, 34.064911744223402 ] } },
{ "type": "Feature", "properties": { "address": "16617 Arminta Street", "city": "Van Nuys", "zip": "91406-1611", "department": "LAFD", "stanum": "114" }, "geometry": { "type": "Point", "coordinates": [ -118.494645942839, 34.215956060228301 ] } },
{ "type": "Feature", "properties": { "address": "8634 Dice Road", "city": "Santa Fe Springs", "zip": "90670", "department": "Santa Fe Springs Fire Department", "stanum": "2" }, "geometry": { "type": "Point", "coordinates": [ -118.065401550488005, 33.962128555904499 ] } },
{ "type": "Feature", "properties": { "address": "9224 Sunland Boulevard", "city": "Sun Valley", "zip": "91352", "department": "LAFD", "stanum": "77" }, "geometry": { "type": "Point", "coordinates": [ -118.367110000496993, 34.236254000363203 ] } },
{ "type": "Feature", "properties": { "address": "21800 Marilla Street", "city": "Chatsworth", "zip": "91311-4127", "department": "LAFD", "stanum": "96" }, "geometry": { "type": "Point", "coordinates": [ -118.603570364001996, 34.247363657245003 ] } },
{ "type": "Feature", "properties": { "address": "4041 Whitsett Avenue", "city": "Studio City", "zip": "91604", "department": "LAFD", "stanum": "78" }, "geometry": { "type": "Point", "coordinates": [ -118.405586242267006, 34.144283294570101 ] } },
{ "type": "Feature", "properties": { "address": "180 South Doheny Drive", "city": "Beverly Hills", "zip": "90211", "department": "Beverly Hills Fire Department", "stanum": "3" }, "geometry": { "type": "Point", "coordinates": [ -118.389404297411005, 34.065208435389998 ] } },
{ "type": "Feature", "properties": { "address": "10124 Balboa Boulevard", "city": "Northridge", "zip": "91325", "department": "LAFD", "stanum": "87" }, "geometry": { "type": "Point", "coordinates": [ -118.501951147472994, 34.254607562968602 ] } },
{ "type": "Feature", "properties": { "address": "4530 Bandini Boulevard", "city": "Los Angeles", "zip": "90040", "department": "Vernon Fire Department", "stanum": "4" }, "geometry": { "type": "Point", "coordinates": [ -118.178238571714004, 33.999049254239701 ] } },
{ "type": "Feature", "properties": { "address": "950 West Walnut Street", "city": "Compton", "zip": "90220", "department": "Compton Fire Department", "stanum": "4" }, "geometry": { "type": "Point", "coordinates": [ -118.239790672371001, 33.875701936275597 ] } },
{ "type": "Feature", "properties": { "address": "1199 East Artesia Boulevard", "city": "Long Beach", "zip": "90805", "department": "Long Beach Fire Department", "stanum": "12" }, "geometry": { "type": "Point", "coordinates": [ -118.177588962024998, 33.875021340338201 ] } },
{ "type": "Feature", "properties": { "address": "600 North Montebello Boulevard", "city": "Montebello", "zip": "90640", "department": "Montebello Fire Department", "stanum": "55" }, "geometry": { "type": "Point", "coordinates": [ -118.105035561438001, 34.019175260061502 ] } },
{ "type": "Feature", "properties": { "address": "225 Marina Drive", "city": "Long Beach", "zip": "90803", "department": "Long Beach Fire Department", "stanum": "21" }, "geometry": { "type": "Point", "coordinates": [ -118.113797544481002, 33.750696704317399 ] } },
{ "type": "Feature", "properties": { "address": "7800 South Vermont Avenue", "city": "Los Angeles", "zip": "90044", "department": "LAFD", "stanum": "57" }, "geometry": { "type": "Point", "coordinates": [ -118.291222188446, 33.968594844439203 ] } },
{ "type": "Feature", "properties": { "address": "4301 Santa Fe Avenue", "city": "Los Angeles", "zip": "90058-1714", "department": "Vernon Fire Department", "stanum": "2" }, "geometry": { "type": "Point", "coordinates": [ -118.230585080493995, 34.005495252333901 ] } },
{ "type": "Feature", "properties": { "address": "1801 East Century Boulevard", "city": "Los Angeles", "zip": "90002", "department": "LAFD", "stanum": "65" }, "geometry": { "type": "Point", "coordinates": [ -118.240330428606001, 33.945974257215703 ] } },
{ "type": "Feature", "properties": { "address": "1400 Manhattan Beach Boulevard", "city": "Manhattan Beach", "zip": "90266", "department": "Manhattan Beach Fire Department", "stanum": "2" }, "geometry": { "type": "Point", "coordinates": [ -118.389648436464, 33.887100219822898 ] } },
{ "type": "Feature", "properties": { "address": "1133 West Rosecrans Avenue", "city": "Compton", "zip": "90222", "department": "Compton Fire Department", "stanum": "3" }, "geometry": { "type": "Point", "coordinates": [ -118.245340874845994, 33.903713311775398 ] } },
{ "type": "Feature", "properties": { "address": "353 North Chevy Chase Drive", "city": "Glendale", "zip": "91206", "department": "Glendale Fire Department", "stanum": "25" }, "geometry": { "type": "Point", "coordinates": [ -118.237106322770003, 34.151367187399003 ] } },
{ "type": "Feature", "properties": { "address": "1335 South Olive Street", "city": "Los Angeles", "zip": "90015", "department": "LAFD", "stanum": "10" }, "geometry": { "type": "Point", "coordinates": [ -118.263952183374002, 34.037434866936998 ] } },
{ "type": "Feature", "properties": { "address": "5821 West 3rd Street", "city": "Los Angeles", "zip": "90036", "department": "LAFD", "stanum": "61" }, "geometry": { "type": "Point", "coordinates": [ -118.347075999637994, 34.069400999641203 ] } },
{ "type": "Feature", "properties": { "address": "1645 East 3rd Street", "city": "Long Beach", "zip": "90802", "department": "Long Beach Fire Department", "stanum": "2" }, "geometry": { "type": "Point", "coordinates": [ -118.171151695945994, 33.769742929060101 ] } },
{ "type": "Feature", "properties": { "address": "5451 Playa Vista Drive", "city": "Los Angeles", "zip": "90094", "department": "LAFD", "stanum": "67" }, "geometry": { "type": "Point", "coordinates": [ -118.428456611081003, 33.974289137043002 ] } },
{ "type": "Feature", "properties": { "address": "1192 East 51st Street", "city": "Los Angeles", "zip": "90011", "department": "LAFD", "stanum": "21" }, "geometry": { "type": "Point", "coordinates": [ -118.254646301397003, 33.996883391980703 ] } },
{ "type": "Feature", "properties": { "address": "515 North Lake Avenue", "city": "Pasadena", "zip": "91101", "department": "Pasadena Fire Department", "stanum": "33" }, "geometry": { "type": "Point", "coordinates": [ -118.132804870890993, 34.154823303351598 ] } },
{ "type": "Feature", "properties": { "address": "401 South Broadway", "city": "Redondo Beach", "zip": "90277", "department": "Redondo Beach Fire Department", "stanum": "1" }, "geometry": { "type": "Point", "coordinates": [ -118.386901037783005, 33.836432540373799 ] } },
{ "type": "Feature", "properties": { "address": "3303 East Chevy Chase Drive", "city": "Glendale", "zip": "91206", "department": "Glendale Fire Department", "stanum": "23" }, "geometry": { "type": "Point", "coordinates": [ -118.200096130358006, 34.174125670809097 ] } },
{ "type": "Feature", "properties": { "address": "3940 Del Amo Boulevard", "city": "Torrance", "zip": "90503", "department": "Torrance Fire Department", "stanum": "5" }, "geometry": { "type": "Point", "coordinates": [ -118.355636479753002, 33.848298102556797 ] } },
{ "type": "Feature", "properties": { "address": "3700 West 190th Street", "city": "Torrance", "zip": "90504", "department": "Torrence Refinery Fire Department", "stanum": null }, "geometry": { "type": "Point", "coordinates": [ -118.337257385746, 33.855865479367701 ] } },
{ "type": "Feature", "properties": { "address": "2295 Elm Avenue", "city": "Long Beach", "zip": "90806", "department": "Long Beach Fire Department", "stanum": "7" }, "geometry": { "type": "Point", "coordinates": [ -118.188544457443001, 33.798713230613103 ] } },
{ "type": "Feature", "properties": { "address": "12520 Mulholland Drive", "city": "Beverly Hills", "zip": "90210", "department": "LAFD", "stanum": "108" }, "geometry": { "type": "Point", "coordinates": [ -118.406285072035999, 34.126978732118197 ] } },
{ "type": "Feature", "properties": { "address": "3036 Fletcher Drive", "city": "Los Angeles", "zip": "90065", "department": "LAFD", "stanum": "50" }, "geometry": { "type": "Point", "coordinates": [ -118.244702185554004, 34.1154148773035 ] } },
{ "type": "Feature", "properties": { "address": "2890 East Wardlow Road", "city": "Long Beach", "zip": "90807", "department": "Long Beach Fire Department", "stanum": "16" }, "geometry": { "type": "Point", "coordinates": [ -118.158007099615006, 33.817912399969103 ] } },
{ "type": "Feature", "properties": { "address": "630 South Baldwin Avenue", "city": "Arcadia", "zip": "91007-3327", "department": "Arcadia Fire Department", "stanum": "106" }, "geometry": { "type": "Point", "coordinates": [ -118.05402886233, 34.132460675965902 ] } },
{ "type": "Feature", "properties": { "address": "14430 Polk Street", "city": "Los Angeles", "zip": "91342", "department": "LAFD", "stanum": "91" }, "geometry": { "type": "Point", "coordinates": [ -118.447891235474998, 34.308795929435902 ] } },
{ "type": "Feature", "properties": { "address": "2503 East Avenue P", "city": "Palmdale", "zip": "93550-2112", "department": "United States Air Force Plant 42 Fire Department", "stanum": "2" }, "geometry": { "type": "Point", "coordinates": [ -118.092098011415004, 34.635579428740101 ] } },
{ "type": "Feature", "properties": { "address": "11970 Venice Avenue", "city": "Los Angeles", "zip": "90066-3941", "department": "LAFD", "stanum": "62" }, "geometry": { "type": "Point", "coordinates": [ -118.428290846707995, 34.005909225628798 ] } },
{ "type": "Feature", "properties": { "address": "1930 Shell Avenue", "city": "Venice", "zip": "90291-3879", "department": "LAFD", "stanum": "63" }, "geometry": { "type": "Point", "coordinates": [ -118.459186377541002, 33.991341151283997 ] } },
{ "type": "Feature", "properties": { "address": "644 North Hollywood Way", "city": "Burbank", "zip": "91505", "department": "Burbank Fire Department", "stanum": "12" }, "geometry": { "type": "Point", "coordinates": [ -118.344029095855007, 34.162572037629502 ] } },
{ "type": "Feature", "properties": { "address": "15345 San Fernando Mission Boulevard", "city": "Mission Hills", "zip": "91345-1111", "department": "LAFD", "stanum": "75" }, "geometry": { "type": "Point", "coordinates": [ -118.4667450428, 34.272522566750901 ] } },
{ "type": "Feature", "properties": { "address": "1600 North Bel Aire Drive", "city": "Burbank", "zip": "91504", "department": "Burbank Fire Department", "stanum": "16" }, "geometry": { "type": "Point", "coordinates": [ -118.312580109989995, 34.200653723894803 ] } },
{ "type": "Feature", "properties": { "address": "50 Avenue 64", "city": "Pasadena", "zip": "91105", "department": "Pasadena Fire Department", "stanum": "39" }, "geometry": { "type": "Point", "coordinates": [ -118.179236298313, 34.140276484190601 ] } },
{ "type": "Feature", "properties": { "address": "2503 East Avenue P", "city": "Palmdale", "zip": "93550-2112", "department": "United States Air Force Plant 42 Fire Department", "stanum": "1" }, "geometry": { "type": "Point", "coordinates": [ -118.078468406644006, 34.619943327642702 ] } },
{ "type": "Feature", "properties": { "address": "330 Windsor Way", "city": "Long Beach", "zip": "90802", "department": "Long Beach Fire Department", "stanum": "6" }, "geometry": { "type": "Point", "coordinates": [ -118.190202246759995, 33.749953871589 ] } },
{ "type": "Feature", "properties": { "address": "2465 Honolulu Avenue", "city": "Glendale", "zip": "91020", "department": "Glendale Fire Department", "stanum": "29" }, "geometry": { "type": "Point", "coordinates": [ -118.232902526518998, 34.207584381281301 ] } },
{ "type": "Feature", "properties": { "address": "411 Loma Avenue", "city": "Long Beach", "zip": "90814", "department": "Long Beach Fire Department", "stanum": "4" }, "geometry": { "type": "Point", "coordinates": [ -118.150530808417997, 33.771955726833497 ] } },
{ "type": "Feature", "properties": { "address": "79 West Orange Grove Avenue", "city": "Arcadia", "zip": "91006", "department": "Arcadia Fire Department", "stanum": "107" }, "geometry": { "type": "Point", "coordinates": [ -118.034994719848996, 34.157592544102997 ] } },
{ "type": "Feature", "properties": { "address": "1320 East Palmer Street", "city": "Compton", "zip": "90221", "department": "Compton Fire Department", "stanum": "2" }, "geometry": { "type": "Point", "coordinates": [ -118.208776268576997, 33.898178841182698 ] } },
{ "type": "Feature", "properties": { "address": "2011 North Eastern Avenue", "city": "Los Angeles", "zip": "90032-3813", "department": "LAFD", "stanum": "16" }, "geometry": { "type": "Point", "coordinates": [ -118.180606277825007, 34.066255960734203 ] } },
{ "type": "Feature", "properties": { "address": "242 West Sierra Madre Boulevard", "city": "Sierra Madre", "zip": "91024", "department": "Sierra Madre Fire Department", "stanum": null }, "geometry": { "type": "Point", "coordinates": [ -118.058305699081998, 34.161660635041002 ] } },
{ "type": "Feature", "properties": { "address": "2401 West Pico Boulevard", "city": "Los Angeles", "zip": "90006", "department": "LAFD", "stanum": "13" }, "geometry": { "type": "Point", "coordinates": [ -118.289502494369003, 34.0475747530433 ] } },
{ "type": "Feature", "properties": { "address": "18143 Parthenia Street", "city": "Northridge", "zip": "91325-3301", "department": "LAFD", "stanum": "103" }, "geometry": { "type": "Point", "coordinates": [ -118.528808150247002, 34.228924458979598 ] } },
{ "type": "Feature", "properties": { "address": "5205 Calle Mayor", "city": "Torrance", "zip": "90505", "department": "Torrance Fire Department", "stanum": "4" }, "geometry": { "type": "Point", "coordinates": [ -118.370235603721994, 33.813297961193697 ] } },
{ "type": "Feature", "properties": { "address": "5200 Eliot Avenue", "city": "Long Beach", "zip": "90803", "department": "Long Beach Fire Department", "stanum": "14" }, "geometry": { "type": "Point", "coordinates": [ -118.132050646234006, 33.769586730888101 ] } },
{ "type": "Feature", "properties": { "address": "1108 N. Eastern Avenue", "city": "Los Angeles", "zip": "90063", "department": "LACoFD", "stanum": "1" }, "geometry": { "type": "Point", "coordinates": [ -118.170778488810996, 34.049829801252898 ] } },
{ "type": "Feature", "properties": { "address": "1860 E. Del Amo", "city": "Carson", "zip": "90746", "department": "LACoFD", "stanum": "10" }, "geometry": { "type": "Point", "coordinates": [ -118.235487217027995, 33.846425147051903 ] } },
{ "type": "Feature", "properties": { "address": "540 Pier Avenue", "city": "Hermosa Beach", "zip": null, "department": "LACoFD", "stanum": "100" }, "geometry": { "type": "Point", "coordinates": [ -118.396642403328002, 33.864145092835699 ] } },
{ "type": "Feature", "properties": { "address": "606 W. Bonita Avenue", "city": "Claremont", "zip": "91711", "department": "LACoFD", "stanum": "101" }, "geometry": { "type": "Point", "coordinates": [ -117.723600505796995, 34.096216174292003 ] } },
{ "type": "Feature", "properties": { "address": "4370 N. Sumner Avenue", "city": "Claremont", "zip": "91711", "department": "LACoFD", "stanum": "102" }, "geometry": { "type": "Point", "coordinates": [ -117.738140109341003, 34.1211171848608 ] } },
{ "type": "Feature", "properties": { "address": "7300 S. Paramount Blvd.", "city": "Pico Rivera", "zip": "90660-3714", "department": "LACoFD", "stanum": "103" }, "geometry": { "type": "Point", "coordinates": [ -118.108175427969002, 33.982786385379796 ] } },
{ "type": "Feature", "properties": { "address": "26901 Golden Valley Rd.", "city": "Santa Clarita", "zip": "91350", "department": "LACoFD", "stanum": "104" }, "geometry": { "type": "Point", "coordinates": [ -118.506746782031001, 34.4282539125646 ] } },
{ "type": "Feature", "properties": { "address": "18915 S. Santa Fe Avenue", "city": "Compton", "zip": "90221", "department": "LACoFD", "stanum": "105" }, "geometry": { "type": "Point", "coordinates": [ -118.21654636945, 33.859802744513502 ] } },
{ "type": "Feature", "properties": { "address": "27413 Indian Peak Road", "city": "Rolling Hills Estate", "zip": "90274", "department": "LACoFD", "stanum": "106" }, "geometry": { "type": "Point", "coordinates": [ -118.376320086804, 33.772096188676997 ] } },
{ "type": "Feature", "properties": { "address": "18239 W. Soledad Canyon Road", "city": "Canyon Country", "zip": "91387", "department": "LACoFD", "stanum": "107" }, "geometry": { "type": "Point", "coordinates": [ -118.451212668577995, 34.416775816083799 ] } },
{ "type": "Feature", "properties": { "address": "28799 N. Rock Canyon Dr.", "city": "Santa Clarita", "zip": null, "department": "LACoFD", "stanum": "108" }, "geometry": { "type": "Point", "coordinates": [ -118.514667612062993, 34.468810294343598 ] } },
{ "type": "Feature", "properties": { "address": "2521 N. El Molino Avenue", "city": "Altadena", "zip": "91001", "department": "LACoFD", "stanum": "11" }, "geometry": { "type": "Point", "coordinates": [ -118.132825374874997, 34.188582408591401 ] } },
{ "type": "Feature", "properties": { "address": "4433 Admiralty Way", "city": "Marina Del Rey", "zip": "90292", "department": "LACoFD", "stanum": "110" }, "geometry": { "type": "Point", "coordinates": [ -118.448583347341994, 33.983925580525302 ] } },
{ "type": "Feature", "properties": { "address": "26829 Seco Canyon Road", "city": "Valencia", "zip": "91350-2217", "department": "LACoFD", "stanum": "111" }, "geometry": { "type": "Point", "coordinates": [ -118.531951978723001, 34.434205452100699 ] } },
{ "type": "Feature", "properties": { "address": "8812 W. Avenue E-8", "city": "Lancaster", "zip": "93536-8783", "department": "LACoFD", "stanum": "112" }, "geometry": { "type": "Point", "coordinates": [ -118.288185826149999, 34.754408251469599 ] } },
{ "type": "Feature", "properties": { "address": "39939 N. 170th Street East", "city": "Palmdale", "zip": "93591-3153", "department": "LACoFD", "stanum": "114" }, "geometry": { "type": "Point", "coordinates": [ -117.825437050006997, 34.606902615336701 ] } },
{ "type": "Feature", "properties": { "address": "11317 Alondra Blvd.", "city": "Norwalk", "zip": "90650-6225", "department": "LACoFD", "stanum": "115" }, "geometry": { "type": "Point", "coordinates": [ -118.092139965436999, 33.887819493260103 ] } },
{ "type": "Feature", "properties": { "address": "755 E. Victoria Street", "city": "Carson", "zip": "90746", "department": "LACoFD", "stanum": "116" }, "geometry": { "type": "Point", "coordinates": [ -118.261871941571997, 33.867404279078599 ] } },
{ "type": "Feature", "properties": { "address": "44851 30th Street East", "city": "Lancaster", "zip": "93535-2808", "department": "LACoFD", "stanum": "117" }, "geometry": { "type": "Point", "coordinates": [ -118.077471802153994, 34.6986678317677 ] } },
{ "type": "Feature", "properties": { "address": "17056 Gale Avenue", "city": "City of Industry", "zip": "91745", "department": "LACoFD", "stanum": "118" }, "geometry": { "type": "Point", "coordinates": [ -117.935494466662007, 34.000240724625201 ] } },
{ "type": "Feature", "properties": { "address": "20480 E. Pathfinder Road", "city": "Walnut", "zip": "91789", "department": "LACoFD", "stanum": "119" }, "geometry": { "type": "Point", "coordinates": [ -117.855450000063001, 33.976352312274798 ] } },
{ "type": "Feature", "properties": { "address": "2760 N. Lincoln Avenue", "city": "Altadena", "zip": "91001", "department": "LACoFD", "stanum": "12" }, "geometry": { "type": "Point", "coordinates": [ -118.158457103572999, 34.192943338130902 ] } },
{ "type": "Feature", "properties": { "address": "1051 S. Grand Avenue", "city": "Diamond Bar", "zip": "91765", "department": "LACoFD", "stanum": "120" }, "geometry": { "type": "Point", "coordinates": [ -117.814228878389997, 34.001905553112799 ] } },
{ "type": "Feature", "properties": { "address": "346 Armitos Place", "city": "Diamond Bar", "zip": "91765", "department": "LACoFD", "stanum": "121" }, "geometry": { "type": "Point", "coordinates": [ -117.793271570428004, 34.025995288418201 ] } },
{ "type": "Feature", "properties": { "address": "2600 Greenmeadow Road", "city": "Lakewood", "zip": "90712", "department": "LACoFD", "stanum": "122" }, "geometry": { "type": "Point", "coordinates": [ -118.160839020745996, 33.833672694605902 ] } },
{ "type": "Feature", "properties": { "address": "26321 N. Sand Canyon Road", "city": "Canyon Country", "zip": "91387-4020", "department": "LACoFD", "stanum": "123" }, "geometry": { "type": "Point", "coordinates": [ -118.414078782166001, 34.384962456584503 ] } },
{ "type": "Feature", "properties": { "address": "25870 Hemingway Av.", "city": "Stevenson Ranch", "zip": "91381-2319", "department": "LACoFD", "stanum": "124" }, "geometry": { "type": "Point", "coordinates": [ -118.582256731268998, 34.387471656869202 ] } },
{ "type": "Feature", "properties": { "address": "5215 N. Las Virgenes Road", "city": "Calabasas", "zip": "91302", "department": "LACoFD", "stanum": "125" }, "geometry": { "type": "Point", "coordinates": [ -118.697782931768003, 34.1511568091532 ] } },
{ "type": "Feature", "properties": { "address": "26320 Citrus St.", "city": "Santa Clarita", "zip": "91355-5323", "department": "LACoFD", "stanum": "126" }, "geometry": { "type": "Point", "coordinates": [ -118.553235262860994, 34.415080633752801 ] } },
{ "type": "Feature", "properties": { "address": "2049 E. 223rd Street", "city": "Carson", "zip": "90810", "department": "LACoFD", "stanum": "127" }, "geometry": { "type": "Point", "coordinates": [ -118.238362852140995, 33.8246464498894 ] } },
{ "type": "Feature", "properties": { "address": "28450 Whites Canyon Road", "city": "Santa Clarita", "zip": null, "department": "LACoFD", "stanum": "128" }, "geometry": { "type": "Point", "coordinates": [ -118.472586048484004, 34.441934303057401 ] } },
{ "type": "Feature", "properties": { "address": "42110 6th Street West", "city": "Lancaster", "zip": "93534-7112", "department": "LACoFD", "stanum": "129" }, "geometry": { "type": "Point", "coordinates": [ -118.140790199693996, 34.648073805463397 ] } },
{ "type": "Feature", "properties": { "address": "3375 Fruitland Ave.", "city": "Vernon", "zip": null, "department": "LACoFD", "stanum": "13" }, "geometry": { "type": "Point", "coordinates": [ -118.205583438180994, 33.9969700486063 ] } },
{ "type": "Feature", "properties": { "address": "44558 40th Street West", "city": "Lancaster", "zip": "93536-9575", "department": "LACoFD", "stanum": "130" }, "geometry": { "type": "Point", "coordinates": [ -118.201103771836003, 34.692818865055301 ] } },
{ "type": "Feature", "properties": { "address": "2629 E. Avenue S", "city": "Palmdale", "zip": "93550-6413", "department": "LACoFD", "stanum": "131" }, "geometry": { "type": "Point", "coordinates": [ -118.081277021911006, 34.558451714120302 ] } },
{ "type": "Feature", "properties": { "address": "29310 Sand Canyon Road", "city": "Santa Clarita", "zip": "91387-1753", "department": "LACoFD", "stanum": "132" }, "geometry": { "type": "Point", "coordinates": [ -118.417657567126994, 34.439262532242097 ] } },
{ "type": "Feature", "properties": { "address": "43225 North 25th Street West", "city": "Lancaster", "zip": "93536-5210", "department": "LACoFD", "stanum": "134" }, "geometry": { "type": "Point", "coordinates": [ -118.175045113528, 34.668305631638098 ] } },
{ "type": "Feature", "properties": { "address": "1846 East Avenue K-4", "city": "Lancaster", "zip": "93535", "department": "LACoFD", "stanum": "135" }, "geometry": { "type": "Point", "coordinates": [ -118.095199659778999, 34.671080268284904 ] } },
{ "type": "Feature", "properties": { "address": "3650 Bolz Ranch Road", "city": "Palmdale", "zip": null, "department": "LACoFD", "stanum": "136" }, "geometry": { "type": "Point", "coordinates": [ -118.194754879507002, 34.6161581874915 ] } },
{ "type": "Feature", "properties": { "address": "1401 W. 108th Street", "city": "Los Angeles", "zip": "90047", "department": "LACoFD", "stanum": "14" }, "geometry": { "type": "Point", "coordinates": [ -118.300563085914007, 33.938499628085403 ] } },
{ "type": "Feature", "properties": { "address": "8723 Elizabeth Lake Road", "city": "Leona Valley", "zip": "93551-7206", "department": "LACoFD", "stanum": "140" }, "geometry": { "type": "Point", "coordinates": [ -118.284888065218993, 34.617324407604499 ] } },
{ "type": "Feature", "properties": { "address": "1124 W. Puente Avenue", "city": "San Dimas", "zip": "91773", "department": "LACoFD", "stanum": "141" }, "geometry": { "type": "Point", "coordinates": [ -117.829460512618994, 34.074598358269299 ] } },
{ "type": "Feature", "properties": { "address": "28580 Hasley Canyon Road", "city": "Castaic", "zip": null, "department": "LACoFD", "stanum": "143" }, "geometry": { "type": "Point", "coordinates": [ -118.633718210135996, 34.454363909665098 ] } },
{ "type": "Feature", "properties": { "address": "31981 W. Foxfield Drive", "city": "Westlake Village", "zip": "91361", "department": "LACoFD", "stanum": "144" }, "geometry": { "type": "Point", "coordinates": [ -118.819265268606998, 34.138993353280803 ] } },
{ "type": "Feature", "properties": { "address": "1525 S. Nogales Street", "city": "Rowland Heights", "zip": "91748", "department": "LACoFD", "stanum": "145" }, "geometry": { "type": "Point", "coordinates": [ -117.889535653530999, 33.989314916001703 ] } },
{ "type": "Feature", "properties": { "address": "20604 E. Loyalton Drive", "city": "Walnut", "zip": "91789", "department": "LACoFD", "stanum": "146" }, "geometry": { "type": "Point", "coordinates": [ -117.852792765247997, 34.045093623221803 ] } },
{ "type": "Feature", "properties": { "address": "3161 E. Imperial Highway", "city": "Lynwood ", "zip": "90262", "department": "LACoFD", "stanum": "147" }, "geometry": { "type": "Point", "coordinates": [ -118.214258421728005, 33.930525483417597 ] } },
{ "type": "Feature", "properties": { "address": "4264 Martin Luther King Jr Bl", "city": "Lynwood", "zip": "90262", "department": "LACoFD", "stanum": "148" }, "geometry": { "type": "Point", "coordinates": [ -118.190376108189994, 33.922179135658602 ] } },
{ "type": "Feature", "properties": { "address": "31770 Ridge Route Road", "city": "Castaic", "zip": "91384-3374", "department": "LACoFD", "stanum": "149" }, "geometry": { "type": "Point", "coordinates": [ -118.616063217114998, 34.496563575014399 ] } },
{ "type": "Feature", "properties": { "address": "11460 Santa Gertrudes", "city": "Whittier", "zip": "90604-3411", "department": "LACoFD", "stanum": "15" }, "geometry": { "type": "Point", "coordinates": [ -117.993432954308005, 33.929695849546299 ] } },
{ "type": "Feature", "properties": { "address": "19190 Golden Valley Rd", "city": "Santa Clarita", "zip": null, "department": "LACoFD", "stanum": "150" }, "geometry": { "type": "Point", "coordinates": [ -118.464999084411005, 34.392249394327898 ] } },
{ "type": "Feature", "properties": { "address": "231 W. Mountain View Avenue", "city": "Glendora", "zip": null, "department": "LACoFD", "stanum": "151" }, "geometry": { "type": "Point", "coordinates": [ -117.867669032712001, 34.137799503873197 ] } },
{ "type": "Feature", "properties": { "address": "807 W. Cypress Street", "city": "Covina", "zip": "91722", "department": "LACoFD", "stanum": "152" }, "geometry": { "type": "Point", "coordinates": [ -117.905880028612998, 34.096037807447203 ] } },
{ "type": "Feature", "properties": { "address": "1577 E. Cypress Street", "city": "Covina", "zip": "91724", "department": "LACoFD", "stanum": "153" }, "geometry": { "type": "Point", "coordinates": [ -117.857596361456999, 34.096121756073003 ] } },
{ "type": "Feature", "properties": { "address": "401 N. Second Avenue", "city": "Covina", "zip": "91723", "department": "LACoFD", "stanum": "154" }, "geometry": { "type": "Point", "coordinates": [ -117.888334767676, 34.089577398637502 ] } },
{ "type": "Feature", "properties": { "address": "Two Harbors", "city": "Two Harbors", "zip": "90704", "department": "LACoFD", "stanum": "155" }, "geometry": { "type": "Point", "coordinates": [ -118.500393858452, 33.4411652598736 ] } },
{ "type": "Feature", "properties": { "address": "24525 Copper Hill Drive", "city": "Valencia", "zip": "91354", "department": "LACoFD", "stanum": "156" }, "geometry": { "type": "Point", "coordinates": [ -118.566545106225007, 34.453999525209497 ] } },
{ "type": "Feature", "properties": { "address": "15921 Spunky Canyon Road", "city": "Green Valley", "zip": "91390-4907", "department": "LACoFD", "stanum": "157" }, "geometry": { "type": "Point", "coordinates": [ -118.410145649246004, 34.617945344149099 ] } },
{ "type": "Feature", "properties": { "address": "1650 W. 162nd Street", "city": "Gardena", "zip": "90247", "department": "LACoFD", "stanum": "158" }, "geometry": { "type": "Point", "coordinates": [ -118.306065650034, 33.883496914555003 ] } },
{ "type": "Feature", "properties": { "address": "2030 W. 135th Street", "city": "Gardena", "zip": "90249", "department": "LACoFD", "stanum": "159" }, "geometry": { "type": "Point", "coordinates": [ -118.314668078173995, 33.908972688417201 ] } },
{ "type": "Feature", "properties": { "address": "8010 S. Compton Avenue", "city": "Los Angeles", "zip": "90001", "department": "LACoFD", "stanum": "16" }, "geometry": { "type": "Point", "coordinates": [ -118.247417960232994, 33.966264100495103 ] } },
{ "type": "Feature", "properties": { "address": "5323 West Rosecrans Avenue", "city": "Hawthorne", "zip": "90250", "department": "LACoFD", "stanum": "160" }, "geometry": { "type": "Point", "coordinates": [ -118.372926400756995, 33.902135799081201 ] } },
{ "type": "Feature", "properties": { "address": "4475 West El Segundo Blvd.", "city": "Hawthorne", "zip": "90250", "department": "LACoFD", "stanum": "161" }, "geometry": { "type": "Point", "coordinates": [ -118.354424899761995, 33.916672101117399 ] } },
{ "type": "Feature", "properties": { "address": "12151 Crenshaw Blvd.", "city": "Hawthorne", "zip": "90250", "department": "LACoFD", "stanum": "162" }, "geometry": { "type": "Point", "coordinates": [ -118.326831630878999, 33.921884758966598 ] } },
{ "type": "Feature", "properties": { "address": "6320 Pine Ave.", "city": "Bell", "zip": "90201", "department": "LACoFD", "stanum": "163" }, "geometry": { "type": "Point", "coordinates": [ -118.188523909951996, 33.979430021861297 ] } },
{ "type": "Feature", "properties": { "address": "6301 S. Santa Fe Ave.", "city": "Huntington Park", "zip": "90255-3805", "department": "LACoFD", "stanum": "164" }, "geometry": { "type": "Point", "coordinates": [ -118.230584626566994, 33.983337587289498 ] } },
{ "type": "Feature", "properties": { "address": "3255 Saturn Ave.", "city": "Huntington Park", "zip": "90255", "department": "LACoFD", "stanum": "165" }, "geometry": { "type": "Point", "coordinates": [ -118.208506149010006, 33.976275583227299 ] } },
{ "type": "Feature", "properties": { "address": "3615 Santa Anita Ave.", "city": "El Monte", "zip": "91731-2428", "department": "LACoFD", "stanum": "166" }, "geometry": { "type": "Point", "coordinates": [ -118.041772205268998, 34.075137793545103 ] } },
{ "type": "Feature", "properties": { "address": "11567 Bryant Road", "city": "El Monte", "zip": "91732-2124", "department": "LACoFD", "stanum": "167" }, "geometry": { "type": "Point", "coordinates": [ -118.020809200241004, 34.0789771805104 ] } },
{ "type": "Feature", "properties": { "address": "3207 Cogswell Rd.", "city": "El Monte", "zip": "91732", "department": "LACoFD", "stanum": "168" }, "geometry": { "type": "Point", "coordinates": [ -118.018433297266995, 34.064588036529898 ] } },
{ "type": "Feature", "properties": { "address": "5112 N. Peck Rd.", "city": "El Monte", "zip": "91732-1426", "department": "LACoFD", "stanum": "169" }, "geometry": { "type": "Point", "coordinates": [ -118.011872108438993, 34.095531527001803 ] } },
{ "type": "Feature", "properties": { "address": "12006 Hadley Street", "city": "Whittier", "zip": "90601-3910", "department": "LACoFD", "stanum": "17" }, "geometry": { "type": "Point", "coordinates": [ -118.048868985488994, 33.9825062273081 ] } },
{ "type": "Feature", "properties": { "address": "10701 S. Crenshaw Blvd.", "city": "Inglewood", "zip": "90303", "department": "LACoFD", "stanum": "170" }, "geometry": { "type": "Point", "coordinates": [ -118.326838421123, 33.938414794308898 ] } },
{ "type": "Feature", "properties": { "address": "141 W. Regent St.", "city": "Inglewood", "zip": "90301", "department": "LACoFD", "stanum": "171" }, "geometry": { "type": "Point", "coordinates": [ -118.356821308156995, 33.964721636875304 ] } },
{ "type": "Feature", "properties": { "address": "810 Centinela Avenue", "city": "Inglewood", "zip": null, "department": "LACoFD", "stanum": "172" }, "geometry": { "type": "Point", "coordinates": [ -118.353376804353999, 33.976156084263302 ] } },
{ "type": "Feature", "properties": { "address": "9001 S. Crenshaw Blvd.", "city": "Inglewood", "zip": "90305", "department": "LACoFD", "stanum": "173" }, "geometry": { "type": "Point", "coordinates": [ -118.326757587022001, 33.955727541696 ] } },
{ "type": "Feature", "properties": { "address": "4518 W. Lennox Blvd.", "city": "Inglewood", "zip": "90304", "department": "LACoFD", "stanum": "18" }, "geometry": { "type": "Point", "coordinates": [ -118.355611087971994, 33.937946967119998 ] } },
{ "type": "Feature", "properties": { "address": "1059 N. White Ave.", "city": "Pomona", "zip": "91768", "department": "LACoFD", "stanum": "182" }, "geometry": { "type": "Point", "coordinates": [ -117.759563390487997, 34.067689116376997 ] } },
{ "type": "Feature", "properties": { "address": "708 N. San Antonio Ave", "city": "Pomona", "zip": "91767", "department": "LACoFD", "stanum": "183" }, "geometry": { "type": "Point", "coordinates": [ -117.736357503131003, 34.065620318809501 ] } },
{ "type": "Feature", "properties": { "address": "1980 W. Orange Grove Ave.", "city": "Pomona", "zip": "91768", "department": "LACoFD", "stanum": "184" }, "geometry": { "type": "Point", "coordinates": [ -117.784820244855993, 34.062970576287398 ] } },
{ "type": "Feature", "properties": { "address": "925 E. Lexington Ave.", "city": "Pomona", "zip": "91766", "department": "LACoFD", "stanum": "185" }, "geometry": { "type": "Point", "coordinates": [ -117.737982486871005, 34.037531004676303 ] } },
{ "type": "Feature", "properties": { "address": "280 E. Bonita Ave.", "city": "Pomona", "zip": "91767", "department": "LACoFD", "stanum": "186" }, "geometry": { "type": "Point", "coordinates": [ -117.745254517513999, 34.095898646896799 ] } },
{ "type": "Feature", "properties": { "address": "3325 W. Temple Ave", "city": "Pomona", "zip": "91768", "department": "LACoFD", "stanum": "187" }, "geometry": { "type": "Point", "coordinates": [ -117.808283149380003, 34.046305553658797 ] } },
{ "type": "Feature", "properties": { "address": "18-A Village Loop Rd.", "city": "Pomona", "zip": "91766", "department": "LACoFD", "stanum": "188" }, "geometry": { "type": "Point", "coordinates": [ -117.770034717377996, 34.0337018961105 ] } },
{ "type": "Feature", "properties": { "address": "1729 W. Foothill Blvd.", "city": "La Canada Flintridge", "zip": "91011", "department": "LACoFD", "stanum": "19" }, "geometry": { "type": "Point", "coordinates": [ -118.214398299677995, 34.211291604813397 ] } },
{ "type": "Feature", "properties": { "address": "850 W. La Habra Blvd.", "city": "La Habra", "zip": null, "department": "LACoFD", "stanum": "191" }, "geometry": { "type": "Point", "coordinates": [ -117.955702297892003, 33.931653626031697 ] } },
{ "type": "Feature", "properties": { "address": "520 S. Harbor Blvd.", "city": "La Habra", "zip": null, "department": "LACoFD", "stanum": "192" }, "geometry": { "type": "Point", "coordinates": [ -117.932556130167001, 33.926983939412303 ] } },
{ "type": "Feature", "properties": { "address": "13540 S. Beach Blvd.", "city": "La Mirada", "zip": "90638", "department": "LACoFD", "stanum": "194" }, "geometry": { "type": "Point", "coordinates": [ -117.976797397962997, 33.909142719374202 ] } },
{ "type": "Feature", "properties": { "address": "340 Palos Verdes Drive W.", "city": "Palos Verdes Estates", "zip": "90274", "department": "LACoFD", "stanum": "2" }, "geometry": { "type": "Point", "coordinates": [ -118.391647470986996, 33.799931265531399 ] } },
{ "type": "Feature", "properties": { "address": "12110 E. Adoree Street", "city": "Norwalk", "zip": "90650", "department": "LACoFD", "stanum": "20" }, "geometry": { "type": "Point", "coordinates": [ -118.074163414097995, 33.9131350247035 ] } },
{ "type": "Feature", "properties": { "address": "4312 W. 147th Street", "city": "Lawndale", "zip": "90260", "department": "LACoFD", "stanum": "21" }, "geometry": { "type": "Point", "coordinates": [ -118.351129757451005, 33.897989837756199 ] } },
{ "type": "Feature", "properties": { "address": "928 S. Gerhart Avenue", "city": "Commerce", "zip": "90022", "department": "LACoFD", "stanum": "22" }, "geometry": { "type": "Point", "coordinates": [ -118.146922398754, 34.017330208461999 ] } },
{ "type": "Feature", "properties": { "address": "9548 E. Flower Street", "city": "Bellflower", "zip": "90706-5708", "department": "LACoFD", "stanum": "23" }, "geometry": { "type": "Point", "coordinates": [ -118.130146902147999, 33.881803289604399 ] } },
{ "type": "Feature", "properties": { "address": "1050 W. Avenue P", "city": "Palmdale", "zip": "93551-3932", "department": "LACoFD", "stanum": "24" }, "geometry": { "type": "Point", "coordinates": [ -118.149529052128003, 34.601432822078301 ] } },
{ "type": "Feature", "properties": { "address": "9209 E. Saluson Avenue", "city": "Pico Rivera", "zip": "90660-4524", "department": "LACoFD", "stanum": "25" }, "geometry": { "type": "Point", "coordinates": [ -118.100416591628999, 33.969870641508898 ] } },
{ "type": "Feature", "properties": { "address": "15336 E. Elliott Avenue", "city": "La Puente", "zip": "91744", "department": "LACoFD", "stanum": "26" }, "geometry": { "type": "Point", "coordinates": [ -117.951328001066997, 34.036270482998901 ] } },
{ "type": "Feature", "properties": { "address": "6031 Rickenbacker Road", "city": "Commerce", "zip": "90040-3031", "department": "LACoFD", "stanum": "27" }, "geometry": { "type": "Point", "coordinates": [ -118.154113296454, 33.988483250704803 ] } },
{ "type": "Feature", "properties": { "address": "7733 Greenleaf Avenue", "city": "Whittier", "zip": "90602-2106", "department": "LACoFD", "stanum": "28" }, "geometry": { "type": "Point", "coordinates": [ -118.037682255578005, 33.970900562710199 ] } },
{ "type": "Feature", "properties": { "address": "14334 E. Los Angeles Street", "city": "Baldwin Park", "zip": "91706", "department": "LACoFD", "stanum": "29" }, "geometry": { "type": "Point", "coordinates": [ -117.961841584140998, 34.091999540046103 ] } },
{ "type": "Feature", "properties": { "address": "930 S. Eastern Avenue", "city": "Los Angeles", "zip": "90022-4801", "department": "LACoFD", "stanum": "3" }, "geometry": { "type": "Point", "coordinates": [ -118.173586636457003, 34.023010435883698 ] } },
{ "type": "Feature", "properties": { "address": "19030 Pioneer Blvd.", "city": "Cerritos", "zip": "90703", "department": "LACoFD", "stanum": "30" }, "geometry": { "type": "Point", "coordinates": [ -118.081696192026001, 33.8575604856347 ] } },
{ "type": "Feature", "properties": { "address": "7521 E. Somerset Blvd.", "city": "Paramount", "zip": "90723-4003", "department": "LACoFD", "stanum": "31" }, "geometry": { "type": "Point", "coordinates": [ -118.168054464332997, 33.896707572725902 ] } },
{ "type": "Feature", "properties": { "address": "605 N. Angeleno Avenue", "city": "Azusa", "zip": "91702-2904", "department": "LACoFD", "stanum": "32" }, "geometry": { "type": "Point", "coordinates": [ -117.910439437099001, 34.131881721227103 ] } },
{ "type": "Feature", "properties": { "address": "44947 Date Avenue", "city": "Lancaster", "zip": "93534-2401", "department": "LACoFD", "stanum": "33" }, "geometry": { "type": "Point", "coordinates": [ -118.141390319663998, 34.699391413721997 ] } },
{ "type": "Feature", "properties": { "address": "21207 S. Norwalk Blvd.", "city": "Hawaiian Gardens", "zip": "90716", "department": "LACoFD", "stanum": "34" }, "geometry": { "type": "Point", "coordinates": [ -118.072275165049007, 33.8369881040514 ] } },
{ "type": "Feature", "properties": { "address": "13717 Artesia Blvd.", "city": "Cerritos", "zip": "90703-8803", "department": "LACoFD", "stanum": "35" }, "geometry": { "type": "Point", "coordinates": [ -118.039411321062005, 33.873632569063702 ] } },
{ "type": "Feature", "properties": { "address": "127 W. 223rd Street", "city": "Carson", "zip": "90745", "department": "LACoFD", "stanum": "36" }, "geometry": { "type": "Point", "coordinates": [ -118.277133626384995, 33.824693654640797 ] } },
{ "type": "Feature", "properties": { "address": "38318 E. 9th Street East", "city": "Palmdale", "zip": "93550-4739", "department": "LACoFD", "stanum": "37" }, "geometry": { "type": "Point", "coordinates": [ -118.114002423667998, 34.578137288588401 ] } },
{ "type": "Feature", "properties": { "address": "3907 W. 54th Street", "city": "Los Angeles", "zip": "90043", "department": "LACoFD", "stanum": "38" }, "geometry": { "type": "Point", "coordinates": [ -118.342435493337007, 33.993283763219701 ] } },
{ "type": "Feature", "properties": { "address": "7000 Garfield Avenue", "city": "Bell Gardens", "zip": "90201", "department": "LACoFD", "stanum": "39" }, "geometry": { "type": "Point", "coordinates": [ -118.149253341614994, 33.968942758708401 ] } },
{ "type": "Feature", "properties": { "address": "2644 N. San Gabriel Blvd.", "city": "Rosemead", "zip": "91770", "department": "LACoFD", "stanum": "4" }, "geometry": { "type": "Point", "coordinates": [ -118.090176190728002, 34.0602502239229 ] } },
{ "type": "Feature", "properties": { "address": "4864 S. Durfee Avenue", "city": "Pico Rivera", "zip": "90660-2459", "department": "LACoFD", "stanum": "40" }, "geometry": { "type": "Point", "coordinates": [ -118.078388832475, 34.001434011328797 ] } },
{ "type": "Feature", "properties": { "address": "1815 E. 120th Street", "city": "Los Angeles", "zip": "90059", "department": "LACoFD", "stanum": "41" }, "geometry": { "type": "Point", "coordinates": [ -118.240213714847997, 33.924881272276302 ] } },
{ "type": "Feature", "properties": { "address": "9319 E. Valley Blvd.", "city": "Rosemead", "zip": "91770", "department": "LACoFD", "stanum": "42" }, "geometry": { "type": "Point", "coordinates": [ -118.066594777340001, 34.081359160768301 ] } },
{ "type": "Feature", "properties": { "address": "921 S. Stimson Avenue", "city": "La Puente", "zip": "91745", "department": "LACoFD", "stanum": "43" }, "geometry": { "type": "Point", "coordinates": [ -117.955762939636998, 34.010342380717702 ] } },
{ "type": "Feature", "properties": { "address": "1105 S. Highland Avenue", "city": "Duarte", "zip": "91010-2549", "department": "LACoFD", "stanum": "44" }, "geometry": { "type": "Point", "coordinates": [ -117.966943404527001, 34.140715242826801 ] } },
{ "type": "Feature", "properties": { "address": "4020 Candlewood Street", "city": "Lakewood", "zip": "90712", "department": "LACoFD", "stanum": "45" }, "geometry": { "type": "Point", "coordinates": [ -118.144207270256004, 33.853563913475199 ] } },
{ "type": "Feature", "properties": { "address": "5946 N. Kauffman Avenue", "city": "Temple City", "zip": "91780-2234", "department": "LACoFD", "stanum": "47" }, "geometry": { "type": "Point", "coordinates": [ -118.058080121483997, 34.108494610561301 ] } },
{ "type": "Feature", "properties": { "address": "15546 E. Arrow Hwy.", "city": "Irwindale", "zip": "91706", "department": "LACoFD", "stanum": "48" }, "geometry": { "type": "Point", "coordinates": [ -117.941294074091005, 34.106734293916702 ] } },
{ "type": "Feature", "properties": { "address": "13820 S. La Mirada Blvd.", "city": "La Mirada", "zip": "90638-3029", "department": "LACoFD", "stanum": "49" }, "geometry": { "type": "Point", "coordinates": [ -118.011415080581997, 33.905073853135598 ] } },
{ "type": "Feature", "properties": { "address": "7225 N. Rosemead Blvd.", "city": "San Gabriel", "zip": "91775-1315", "department": "LACoFD", "stanum": "5" }, "geometry": { "type": "Point", "coordinates": [ -118.073490175741, 34.128414294365001 ] } },
{ "type": "Feature", "properties": { "address": "2327 S. Saybrook Avenue", "city": "Commerce", "zip": "90040-1721", "department": "LACoFD", "stanum": "50" }, "geometry": { "type": "Point", "coordinates": [ -118.140597680857994, 34.000939292641 ] } },
{ "type": "Feature", "properties": { "address": "3900 N. Lankershim Blvd.", "city": "Universal City", "zip": "91604", "department": "LACoFD", "stanum": "51" }, "geometry": { "type": "Point", "coordinates": [ -118.356630803339996, 34.139552444018399 ] } },
{ "type": "Feature", "properties": { "address": "4301 S. Santa Fe Ave.", "city": "Vernon", "zip": null, "department": "LACoFD", "stanum": "52" }, "geometry": { "type": "Point", "coordinates": [ -118.230512185023997, 34.005512071635103 ] } },
{ "type": "Feature", "properties": { "address": "6124 W. Palos Verdes Drive S", "city": "Rancho Palos Verdes", "zip": "90275", "department": "LACoFD", "stanum": "53" }, "geometry": { "type": "Point", "coordinates": [ -118.384574800718994, 33.7447689456747 ] } },
{ "type": "Feature", "properties": { "address": "4867 Southern Avenue", "city": "South Gate", "zip": "90280", "department": "LACoFD", "stanum": "54" }, "geometry": { "type": "Point", "coordinates": [ -118.183871185805998, 33.948498122022698 ] } },
{ "type": "Feature", "properties": { "address": "945 Avalon Canyon Rd.", "city": "Avalon", "zip": "90704", "department": "LACoFD", "stanum": "55" }, "geometry": { "type": "Point", "coordinates": [ -118.335489802721, 33.333126260823697 ] } },
{ "type": "Feature", "properties": { "address": "12 Crest Road West", "city": "Rolling Hills", "zip": "90274", "department": "LACoFD", "stanum": "56" }, "geometry": { "type": "Point", "coordinates": [ -118.354062062362004, 33.756683616509598 ] } },
{ "type": "Feature", "properties": { "address": "5720 Gardendale Street", "city": "South Gate", "zip": "90280", "department": "LACoFD", "stanum": "57" }, "geometry": { "type": "Point", "coordinates": [ -118.168260872399003, 33.922381359746097 ] } },
{ "type": "Feature", "properties": { "address": "5757 S. Fairfax Avenue", "city": "Los Angeles", "zip": "90056", "department": "LACoFD", "stanum": "58" }, "geometry": { "type": "Point", "coordinates": [ -118.363156409084993, 33.987899533623199 ] } },
{ "type": "Feature", "properties": { "address": "10021 Scott Avenue", "city": "Whittier", "zip": "90603", "department": "LACoFD", "stanum": "59" }, "geometry": { "type": "Point", "coordinates": [ -118.001066116686005, 33.946447546444297 ] } },
{ "type": "Feature", "properties": { "address": "25517 S. Narbonne Avenue", "city": "Lomita", "zip": "90717", "department": "LACoFD", "stanum": "6" }, "geometry": { "type": "Point", "coordinates": [ -118.320240081975001, 33.791853429181103 ] } },
{ "type": "Feature", "properties": { "address": "2300 East 27th Street", "city": "Signal Hill", "zip": "90755", "department": "LACoFD", "stanum": "60" }, "geometry": { "type": "Point", "coordinates": [ -118.164100620208998, 33.805997147656299 ] } },
{ "type": "Feature", "properties": { "address": "20011 La Puente Road", "city": "Walnut", "zip": "91789", "department": "LACoFD", "stanum": "61" }, "geometry": { "type": "Point", "coordinates": [ -117.865657844409, 34.020797269143898 ] } },
{ "type": "Feature", "properties": { "address": "3701 N. Mills Avenue", "city": "Claremont", "zip": "91711-1440", "department": "LACoFD", "stanum": "62" }, "geometry": { "type": "Point", "coordinates": [ -117.707746156168994, 34.1363174790418 ] } },
{ "type": "Feature", "properties": { "address": "4526 Ramsdell Avenue", "city": "La Cresecenta", "zip": "91214", "department": "LACoFD", "stanum": "63" }, "geometry": { "type": "Point", "coordinates": [ -118.244024414500998, 34.227866980972699 ] } },
{ "type": "Feature", "properties": { "address": "164 S. Walnut", "city": "San Dimas", "zip": "91773", "department": "LACoFD", "stanum": "64" }, "geometry": { "type": "Point", "coordinates": [ -117.802387289863006, 34.105491253122203 ] } },
{ "type": "Feature", "properties": { "address": "4206 N. Cornell Road", "city": "Agoura", "zip": "91301", "department": "LACoFD", "stanum": "65" }, "geometry": { "type": "Point", "coordinates": [ -118.753497605511996, 34.1343896965273 ] } },
{ "type": "Feature", "properties": { "address": "2764 E. Eaton Canyon Dr ", "city": "Pasadena", "zip": "91107", "department": "LACoFD", "stanum": "66" }, "geometry": { "type": "Point", "coordinates": [ -118.093794901109007, 34.174430874035103 ] } },
{ "type": "Feature", "properties": { "address": "25801 Piuma Road", "city": "Calabasas", "zip": "91302", "department": "LACoFD", "stanum": "67" }, "geometry": { "type": "Point", "coordinates": [ -118.694085570534, 34.078083423195103 ] } },
{ "type": "Feature", "properties": { "address": "24130 Calabasas Road", "city": "Calabasas", "zip": "91302", "department": "LACoFD", "stanum": "68" }, "geometry": { "type": "Point", "coordinates": [ -118.652348288088007, 34.151739215916599 ] } },
{ "type": "Feature", "properties": { "address": "401 S. Topanga Canyon Blvd.", "city": "Topanga", "zip": "90290", "department": "LACoFD", "stanum": "69" }, "geometry": { "type": "Point", "coordinates": [ -118.600063731432996, 34.083851038441203 ] } },
{ "type": "Feature", "properties": { "address": "846 N. San Vincente Blvd.", "city": "West Hollywood", "zip": "90069", "department": "LACoFD", "stanum": "7" }, "geometry": { "type": "Point", "coordinates": [ -118.385080531151999, 34.086987730907197 ] } },
{ "type": "Feature", "properties": { "address": "3970 Carbon Canyon Road", "city": "Malibu", "zip": "90265", "department": "LACoFD", "stanum": "70" }, "geometry": { "type": "Point", "coordinates": [ -118.649623255026, 34.038449823269602 ] } },
{ "type": "Feature", "properties": { "address": "28722 W. Pacific Coast Hwy.", "city": "Malibu", "zip": "90265", "department": "LACoFD", "stanum": "71" }, "geometry": { "type": "Point", "coordinates": [ -118.797383900536005, 34.020163389614403 ] } },
{ "type": "Feature", "properties": { "address": "1832 S. Decker Canyon Road", "city": "Malibu", "zip": "90265", "department": "LACoFD", "stanum": "72" }, "geometry": { "type": "Point", "coordinates": [ -118.881135906097995, 34.076631073950502 ] } },
{ "type": "Feature", "properties": { "address": "24875 N. Railroad Avenue", "city": "Newhall", "zip": "91321-1520", "department": "LACoFD", "stanum": "73" }, "geometry": { "type": "Point", "coordinates": [ -118.533816546816993, 34.387489259723097 ] } },
{ "type": "Feature", "properties": { "address": "12587 N. Dexter Park Road", "city": "San Fernando", "zip": "91342", "department": "LACoFD", "stanum": "74" }, "geometry": { "type": "Point", "coordinates": [ -118.375785525319003, 34.2958436253112 ] } },
{ "type": "Feature", "properties": { "address": "23310 Lake Manor Drive", "city": "Chatsworth", "zip": "91311", "department": "LACoFD", "stanum": "75" }, "geometry": { "type": "Point", "coordinates": [ -118.634776620823004, 34.237794048828299 ] } },
{ "type": "Feature", "properties": { "address": "27223 Henry Mayo Drive", "city": "Valencia", "zip": "91355-1009", "department": "LACoFD", "stanum": "76" }, "geometry": { "type": "Point", "coordinates": [ -118.610506595081006, 34.4390550597901 ] } },
{ "type": "Feature", "properties": { "address": "46833 Peace Valley Road", "city": "Gorman", "zip": "93243", "department": "LACoFD", "stanum": "77" }, "geometry": { "type": "Point", "coordinates": [ -118.797413629792999, 34.759389001344204 ] } },
{ "type": "Feature", "properties": { "address": "17021 Elizabeth Lake Road", "city": "Lake Hughes", "zip": "93532", "department": "LACoFD", "stanum": "78" }, "geometry": { "type": "Point", "coordinates": [ -118.430896482058003, 34.673664969891703 ] } },
{ "type": "Feature", "properties": { "address": "33957 Longview Road", "city": "Pearblossom", "zip": "93553-3100", "department": "LACoFD", "stanum": "79" }, "geometry": { "type": "Point", "coordinates": [ -117.896904999244001, 34.502499638650598 ] } },
{ "type": "Feature", "properties": { "address": "7643 W. Santa Monica Blvd.", "city": "West Hollywood", "zip": "90046", "department": "LACoFD", "stanum": "8" }, "geometry": { "type": "Point", "coordinates": [ -118.356470150454996, 34.091036952840703 ] } },
{ "type": "Feature", "properties": { "address": "1533 W. Sierra Highway", "city": "Acton", "zip": "93510-1894", "department": "LACoFD", "stanum": "80" }, "geometry": { "type": "Point", "coordinates": [ -118.142098812588998, 34.487848968876897 ] } },
{ "type": "Feature", "properties": { "address": "8710 W. Sierra Highway", "city": "Agua Dulce", "zip": "91360", "department": "LACoFD", "stanum": "81" }, "geometry": { "type": "Point", "coordinates": [ -118.286445522101999, 34.519194340372103 ] } },
{ "type": "Feature", "properties": { "address": "352 W. Foothill Blvd.", "city": "La Canada Flintridge", "zip": "91011", "department": "LACoFD", "stanum": "82" }, "geometry": { "type": "Point", "coordinates": [ -118.186365562709994, 34.197511748850303 ] } },
{ "type": "Feature", "properties": { "address": "83 Miraleste Plaza", "city": "Rancho Palos Verdes", "zip": "90275", "department": "LACoFD", "stanum": "83" }, "geometry": { "type": "Point", "coordinates": [ -118.325103555184995, 33.749189308781503 ] } },
{ "type": "Feature", "properties": { "address": "5030 W. Avenue L-14", "city": "Quartz Hill", "zip": "93536-4339", "department": "LACoFD", "stanum": "84" }, "geometry": { "type": "Point", "coordinates": [ -118.219582918251007, 34.647144421394302 ] } },
{ "type": "Feature", "properties": { "address": "650 E. Gladstone Street", "city": "Glendora", "zip": "91740", "department": "LACoFD", "stanum": "85" }, "geometry": { "type": "Point", "coordinates": [ -117.851044986743005, 34.113640799941102 ] } },
{ "type": "Feature", "properties": { "address": "520 S. Amelia Avenue", "city": "Glendora", "zip": "91741-4027", "department": "LACoFD", "stanum": "86" }, "geometry": { "type": "Point", "coordinates": [ -117.820176747532003, 34.128217489628398 ] } },
{ "type": "Feature", "properties": { "address": "140 S. Second Avenue", "city": "Industry", "zip": "91746", "department": "LACoFD", "stanum": "87" }, "geometry": { "type": "Point", "coordinates": [ -117.993313227898994, 34.046063176508902 ] } },
{ "type": "Feature", "properties": { "address": "23720 W. Malibu Road", "city": "Malibu", "zip": "90265", "department": "LACoFD", "stanum": "88" }, "geometry": { "type": "Point", "coordinates": [ -118.691781664095004, 34.033548217650299 ] } },
{ "type": "Feature", "properties": { "address": "29575 Canwood St.", "city": "Agoura Hills ", "zip": "91301", "department": "LACoFD", "stanum": "89" }, "geometry": { "type": "Point", "coordinates": [ -118.769256666443994, 34.147878061418297 ] } },
{ "type": "Feature", "properties": { "address": "10115 E. Rush Street", "city": "So. El Monte", "zip": "91733", "department": "LACoFD", "stanum": "90" }, "geometry": { "type": "Point", "coordinates": [ -118.049368512168996, 34.052105778604798 ] } },
{ "type": "Feature", "properties": { "address": "2691 S. Turnbull Canyon Road", "city": "Hacienda Heights", "zip": "91745", "department": "LACoFD", "stanum": "91" }, "geometry": { "type": "Point", "coordinates": [ -117.988444429029997, 33.9965423160467 ] } },
{ "type": "Feature", "properties": { "address": "8905 E. Avenue U", "city": "Littlerock", "zip": "93543-3104", "department": "LACoFD", "stanum": "92" }, "geometry": { "type": "Point", "coordinates": [ -117.970951076326998, 34.528690371898399 ] } },
{ "type": "Feature", "properties": { "address": "5624 E Avenue R", "city": "Palmdale", "zip": null, "department": "LACoFD", "stanum": "93" }, "geometry": { "type": "Point", "coordinates": [ -118.028679468185004, 34.572196926959201 ] } },
{ "type": "Feature", "properties": { "address": "6421 E. Turnergrove Drive", "city": "Lakewood", "zip": "90713", "department": "LACoFD", "stanum": "94" }, "geometry": { "type": "Point", "coordinates": [ -118.106860094889001, 33.846408006754501 ] } },
{ "type": "Feature", "properties": { "address": "137 W. Redondo Beach Blvd.", "city": "Gardena", "zip": "90248", "department": "LACoFD", "stanum": "95" }, "geometry": { "type": "Point", "coordinates": [ -118.277612073537, 33.893166761432902 ] } },
{ "type": "Feature", "properties": { "address": "10630 S. Mills Avenue", "city": "Whittier", "zip": "90604", "department": "LACoFD", "stanum": "96" }, "geometry": { "type": "Point", "coordinates": [ -118.039987421608004, 33.937078684749501 ] } },
{ "type": "Feature", "properties": { "address": "18543 E. Sierra Madre Avenue", "city": "Azusa", "zip": "91702-1552", "department": "LACoFD", "stanum": "97" }, "geometry": { "type": "Point", "coordinates": [ -117.891004279141995, 34.146757327928697 ] } },
{ "type": "Feature", "properties": { "address": "9814 Maplewood Street", "city": "Bellflower", "zip": "90706-3103", "department": "LACoFD", "stanum": "98" }, "geometry": { "type": "Point", "coordinates": [ -118.124933717399998, 33.899878080126697 ] } },
{ "type": "Feature", "properties": { "address": "32550 Pacific Coast Highway", "city": "Malibu", "zip": "90265", "department": "LACoFD", "stanum": "99" }, "geometry": { "type": "Point", "coordinates": [ -118.883607458838995, 34.039939185280197 ] } }
]
}
