{
"type": "FeatureCollection",
"name": "LACoFD_stations",
"crs": { "type": "name", "properties": { "name": "urn:ogc:def:crs:OGC:1.3:CRS84" } },
"features": [
{ "type": "Feature", "properties": { "stanum": 77, "address": "46833 Peace Valley Road", "city": "Gorman", "div": "III", "region": "North", "zipcode": "93243-0002" }, "geometry": { "type": "Point", "coordinates": [ -118.797413629792999, 34.759389001344204 ] } },
{ "type": "Feature", "properties": { "stanum": 112, "address": "8812 W. Avenue E-8", "city": "Lancaster", "div": "V", "region": "North", "zipcode": "93535-9662" }, "geometry": { "type": "Point", "coordinates": [ -118.288185826149999, 34.754408251469599 ] } },
{ "type": "Feature", "properties": { "stanum": 117, "address": "44851 30th Street East", "city": "Lancaster", "div": "V", "region": "North", "zipcode": "93535-1338" }, "geometry": { "type": "Point", "coordinates": [ -118.077471802153994, 34.6986678317677 ] } },
{ "type": "Feature", "properties": { "stanum": 33, "address": "44947 Date Avenue", "city": "Lancaster", "div": "V", "region": "North", "zipcode": "93534-3213" }, "geometry": { "type": "Point", "coordinates": [ -118.141390319663998, 34.699391413721997 ] } },
{ "type": "Feature", "properties": { "stanum": 130, "address": "44558 40th Street West", "city": "Lancaster", "div": "V", "region": "North", "zipcode": "93536-9575 " }, "geometry": { "type": "Point", "coordinates": [ -118.201103771836003, 34.692818865055301 ] } },
{ "type": "Feature", "properties": { "stanum": 78, "address": "17021 Elizabeth Lake Road", "city": "Lake Hughes", "div": "V", "region": "North", "zipcode": "93532-9519" }, "geometry": { "type": "Point", "coordinates": [ -118.430896482058003, 34.673664969891703 ] } },
{ "type": "Feature", "properties": { "stanum": 135, "address": "1846 East Avenue K-4", "city": "Lancaster", "div": "V", "region": "North", "zipcode": "93535" }, "geometry": { "type": "Point", "coordinates": [ -118.095199659778999, 34.671080268284904 ] } },
{ "type": "Feature", "properties": { "stanum": 134, "address": "43225 North 25th Street West", "city": "Lancaster", "div": "V", "region": "North", "zipcode": "93534" }, "geometry": { "type": "Point", "coordinates": [ -118.175045113528, 34.668305631638098 ] } },
{ "type": "Feature", "properties": { "stanum": 129, "address": "42110 6th Street West", "city": "Lancaster", "div": "V", "region": "North", "zipcode": "93534-7134" }, "geometry": { "type": "Point", "coordinates": [ -118.140790199693996, 34.648073805463397 ] } },
{ "type": "Feature", "properties": { "stanum": 84, "address": "5030 W. Avenue L-14", "city": "Quartz Hill", "div": "V", "region": "North", "zipcode": "93536-3622" }, "geometry": { "type": "Point", "coordinates": [ -118.219582918251007, 34.647144421394302 ] } },
{ "type": "Feature", "properties": { "stanum": 140, "address": "8723 Elizabeth Lake Road", "city": "Leona Valley", "div": "V", "region": "North", "zipcode": "93551-9715" }, "geometry": { "type": "Point", "coordinates": [ -118.284888065218993, 34.617324407604499 ] } },
{ "type": "Feature", "properties": { "stanum": 136, "address": "3650 Bolz Ranch Road", "city": "Palmdale", "div": "V", "region": "North", "zipcode": "93551" }, "geometry": { "type": "Point", "coordinates": [ -118.194754879507002, 34.6161581874915 ] } },
{ "type": "Feature", "properties": { "stanum": 114, "address": "39939 N. 170th Street East", "city": "Palmdale", "div": "V", "region": "North", "zipcode": "93550-9618" }, "geometry": { "type": "Point", "coordinates": [ -117.825437050006997, 34.606902615336701 ] } },
{ "type": "Feature", "properties": { "stanum": 24, "address": "1050 W. Avenue P", "city": "Palmdale", "div": "V", "region": "North", "zipcode": "93550-2932" }, "geometry": { "type": "Point", "coordinates": [ -118.149529052128003, 34.601432822078301 ] } },
{ "type": "Feature", "properties": { "stanum": 37, "address": "38318 E. 9th Street East", "city": "Palmdale", "div": "V", "region": "North", "zipcode": "93550-4790" }, "geometry": { "type": "Point", "coordinates": [ -118.114002423667998, 34.578137288588401 ] } },
{ "type": "Feature", "properties": { "stanum": 93, "address": "5624 E Avenue R", "city": "Palmdale", "div": "V", "region": "North", "zipcode": "93550" }, "geometry": { "type": "Point", "coordinates": [ -118.028679468185004, 34.572196926959201 ] } },
{ "type": "Feature", "properties": { "stanum": 131, "address": "2629 E. Avenue S", "city": "Palmdale", "div": "V", "region": "North", "zipcode": "93550-4790" }, "geometry": { "type": "Point", "coordinates": [ -118.081277021911006, 34.558451714120302 ] } },
{ "type": "Feature", "properties": { "stanum": 92, "address": "8905 E. Avenue U", "city": "Littlerock", "div": "V", "region": "North", "zipcode": "93543-9520" }, "geometry": { "type": "Point", "coordinates": [ -117.970951076326998, 34.528690371898399 ] } },
{ "type": "Feature", "properties": { "stanum": 81, "address": "8710 W. Sierra Highway", "city": "Agua Dulce", "div": "III", "region": "Noth", "zipcode": "91350-2814" }, "geometry": { "type": "Point", "coordinates": [ -118.286445522101999, 34.519194340372103 ] } },
{ "type": "Feature", "properties": { "stanum": 79, "address": "33957 Longview Road", "city": "Pearblossom", "div": "V", "region": "North", "zipcode": "93553-9704" }, "geometry": { "type": "Point", "coordinates": [ -117.896904999244001, 34.502499638650598 ] } },
{ "type": "Feature", "properties": { "stanum": 149, "address": "31770 Ridge Route Road", "city": "Castaic", "div": "III", "region": "North", "zipcode": "91384-3329" }, "geometry": { "type": "Point", "coordinates": [ -118.616063217114998, 34.496563575014399 ] } },
{ "type": "Feature", "properties": { "stanum": 80, "address": "1533 W. Sierra Highway", "city": "Acton", "div": "V", "region": "North", "zipcode": "93510-9740" }, "geometry": { "type": "Point", "coordinates": [ -118.142098812588998, 34.487848968876897 ] } },
{ "type": "Feature", "properties": { "stanum": 108, "address": "28799 N. Rock Canyon Dr.", "city": "Santa Clarita", "div": "III", "region": "North", "zipcode": "91390-4297" }, "geometry": { "type": "Point", "coordinates": [ -118.514667612062993, 34.468810294343598 ] } },
{ "type": "Feature", "properties": { "stanum": 111, "address": "26829 Seco Canyon Road", "city": "Valencia", "div": "III", "region": "North", "zipcode": "91350-2217" }, "geometry": { "type": "Point", "coordinates": [ -118.531951978723001, 34.434205452100699 ] } },
{ "type": "Feature", "properties": { "stanum": 107, "address": "18239 W. Soledad Canyon Road", "city": "Canyon Country", "div": "III", "region": "North", "zipcode": "91351-3521" }, "geometry": { "type": "Point", "coordinates": [ -118.451212668577995, 34.416775816083799 ] } },
{ "type": "Feature", "properties": { "stanum": 126, "address": "26320 Citrus St.", "city": "Santa Clarita", "div": "III", "region": "North", "zipcode": "91355" }, "geometry": { "type": "Point", "coordinates": [ -118.553235262860994, 34.415080633752801 ] } },
{ "type": "Feature", "properties": { "stanum": 73, "address": "24875 N. Railroad Avenue", "city": "Newhall", "div": "III", "region": "North", "zipcode": "91321-1520" }, "geometry": { "type": "Point", "coordinates": [ -118.533816546816993, 34.387489259723097 ] } },
{ "type": "Feature", "properties": { "stanum": 123, "address": "26321 N. Sand Canyon Road", "city": "Canyon Country", "div": "III", "region": "North", "zipcode": "91351-4020" }, "geometry": { "type": "Point", "coordinates": [ -118.414078782166001, 34.384962456584503 ] } },
{ "type": "Feature", "properties": { "stanum": 75, "address": "23310 Lake Manor Drive", "city": "Chatsworth", "div": "III", "region": "North", "zipcode": "91311-6418" }, "geometry": { "type": "Point", "coordinates": [ -118.634776620823004, 34.237794048828299 ] } },
{ "type": "Feature", "properties": { "stanum": 63, "address": "4526 Ramsdell Avenue", "city": "La Cresecenta", "div": "III", "region": "North", "zipcode": "91214-2838" }, "geometry": { "type": "Point", "coordinates": [ -118.244024414500998, 34.227866980972699 ] } },
{ "type": "Feature", "properties": { "stanum": 19, "address": "1729 W. Foothill Blvd.", "city": "La Canada Flintridge", "div": "III", "region": "North", "zipcode": "91011-2950" }, "geometry": { "type": "Point", "coordinates": [ -118.214398299677995, 34.211291604813397 ] } },
{ "type": "Feature", "properties": { "stanum": 82, "address": "352 W. Foothill Blvd.", "city": "La Canada Flintridge", "div": "III", "region": "North", "zipcode": "91011-3501" }, "geometry": { "type": "Point", "coordinates": [ -118.186365562709994, 34.197511748850303 ] } },
{ "type": "Feature", "properties": { "stanum": 12, "address": "2760 N. Lincoln Avenue", "city": "Altadena", "div": "III", "region": "North", "zipcode": "91001-4961" }, "geometry": { "type": "Point", "coordinates": [ -118.158457103572999, 34.192943338130902 ] } },
{ "type": "Feature", "properties": { "stanum": 11, "address": "2521 N. El Molino Avenue", "city": "Altadena", "div": "III", "region": "North", "zipcode": "91001-2317" }, "geometry": { "type": "Point", "coordinates": [ -118.132825374874997, 34.188582408591401 ] } },
{ "type": "Feature", "properties": { "stanum": 68, "address": "24130 Calabasas Road", "city": "Calabasas", "div": "VII", "region": "Central", "zipcode": "91302-1511" }, "geometry": { "type": "Point", "coordinates": [ -118.652348288088007, 34.151739215916599 ] } },
{ "type": "Feature", "properties": { "stanum": 125, "address": "5215 N. Las Virgenes Road", "city": "Calabasas", "div": "VII", "region": "Central", "zipcode": "91302-1061" }, "geometry": { "type": "Point", "coordinates": [ -118.697782931768003, 34.1511568091532 ] } },
{ "type": "Feature", "properties": { "stanum": 144, "address": "31981 W. Foxfield Drive", "city": "Westlake Village", "div": "VII", "region": "Central", "zipcode": "91361-4203" }, "geometry": { "type": "Point", "coordinates": [ -118.819265268606998, 34.138993353280803 ] } },
{ "type": "Feature", "properties": { "stanum": 44, "address": "1105 S. Highland Avenue", "city": "Duarte", "div": "II", "region": "East", "zipcode": "91010-2546" }, "geometry": { "type": "Point", "coordinates": [ -117.966943404527001, 34.140715242826801 ] } },
{ "type": "Feature", "properties": { "stanum": 51, "address": "3900 N. Lankershim Blvd.", "city": "Universal City", "div": "VII", "region": "Central", "zipcode": "91608-1085" }, "geometry": { "type": "Point", "coordinates": [ -118.356630803339996, 34.139552444018399 ] } },
{ "type": "Feature", "properties": { "stanum": 151, "address": "231 W. Mountain View Avenue", "city": "Glendora", "div": "II", "region": "East", "zipcode": "91741-3302" }, "geometry": { "type": "Point", "coordinates": [ -117.867669032712001, 34.137799503873197 ] } },
{ "type": "Feature", "properties": { "stanum": 65, "address": "4206 N. Cornell Road", "city": "Agoura", "div": "VII", "region": "Central", "zipcode": "91301-2528" }, "geometry": { "type": "Point", "coordinates": [ -118.753497605511996, 34.1343896965273 ] } },
{ "type": "Feature", "properties": { "stanum": 62, "address": "3701 N. Mills Avenue", "city": "Claremont", "div": "II", "region": "East", "zipcode": "91711-1423" }, "geometry": { "type": "Point", "coordinates": [ -117.707746156168994, 34.1363174790418 ] } },
{ "type": "Feature", "properties": { "stanum": 32, "address": "605 N. Angeleno Avenue", "city": "Azusa", "div": "II", "region": "East", "zipcode": "91702-2904" }, "geometry": { "type": "Point", "coordinates": [ -117.910439437099001, 34.131881721227103 ] } },
{ "type": "Feature", "properties": { "stanum": 5, "address": "7225 N. Rosemead Blvd.", "city": "San Gabriel", "div": "IX", "region": "East", "zipcode": "91775-1315" }, "geometry": { "type": "Point", "coordinates": [ -118.073490175741, 34.128414294365001 ] } },
{ "type": "Feature", "properties": { "stanum": 86, "address": "520 S. Amelia Avenue", "city": "Glendora", "div": "II", "region": "East", "zipcode": "91741-4027" }, "geometry": { "type": "Point", "coordinates": [ -117.820176747532003, 34.128217489628398 ] } },
{ "type": "Feature", "properties": { "stanum": 102, "address": "4370 N. Sumner Avenue", "city": "Claremont", "div": "II", "region": "East", "zipcode": "91711-2493" }, "geometry": { "type": "Point", "coordinates": [ -117.738140109341003, 34.1211171848608 ] } },
{ "type": "Feature", "properties": { "stanum": 85, "address": "650 E. Gladstone Street", "city": "Glendora", "div": "II", "region": "East", "zipcode": "91740-5726" }, "geometry": { "type": "Point", "coordinates": [ -117.851044986743005, 34.113640799941102 ] } },
{ "type": "Feature", "properties": { "stanum": 47, "address": "5946 N. Kauffman Avenue", "city": "Temple City", "div": "IX", "region": "East", "zipcode": "91780-2234" }, "geometry": { "type": "Point", "coordinates": [ -118.058080121483997, 34.108494610561301 ] } },
{ "type": "Feature", "properties": { "stanum": 48, "address": "15546 E. Arrow Hwy.", "city": "Irwindale", "div": "II", "region": "East", "zipcode": "91706-2001" }, "geometry": { "type": "Point", "coordinates": [ -117.941294074091005, 34.106734293916702 ] } },
{ "type": "Feature", "properties": { "stanum": 64, "address": "164 S. Walnut", "city": "San Dimas", "div": "II", "region": "East", "zipcode": "91773-2620" }, "geometry": { "type": "Point", "coordinates": [ -117.802387289863006, 34.105491253122203 ] } },
{ "type": "Feature", "properties": { "stanum": 101, "address": "606 W. Bonita Avenue", "city": "Claremont", "div": "II", "region": "East", "zipcode": "91711-4512" }, "geometry": { "type": "Point", "coordinates": [ -117.723600505796995, 34.096216174292003 ] } },
{ "type": "Feature", "properties": { "stanum": 153, "address": "1577 E. Cypress Street", "city": "Covina", "div": "II", "region": "East", "zipcode": "91723" }, "geometry": { "type": "Point", "coordinates": [ -117.857596361456999, 34.096121756073003 ] } },
{ "type": "Feature", "properties": { "stanum": 186, "address": "280 E. Bonita Ave.", "city": "Pomona", "div": "VIII", "region": "East", "zipcode": "91767-1924" }, "geometry": { "type": "Point", "coordinates": [ -117.745254517513999, 34.095898646896799 ] } },
{ "type": "Feature", "properties": { "stanum": 152, "address": "807 W. Cypress Street", "city": "Covina", "div": "II", "region": "East", "zipcode": "91723" }, "geometry": { "type": "Point", "coordinates": [ -117.905880028612998, 34.096037807447203 ] } },
{ "type": "Feature", "properties": { "stanum": 169, "address": "5112 N. Peck Rd.", "city": "El Monte", "div": "IX", "region": "East", "zipcode": "91732" }, "geometry": { "type": "Point", "coordinates": [ -118.011872108438993, 34.095531527001803 ] } },
{ "type": "Feature", "properties": { "stanum": 29, "address": "14334 E. Los Angeles Street", "city": "Baldwin Park", "div": "II", "region": "East", "zipcode": "91706-2603" }, "geometry": { "type": "Point", "coordinates": [ -117.961841584140998, 34.091999540046103 ] } },
{ "type": "Feature", "properties": { "stanum": 8, "address": "7643 W. Santa Monica Blvd.", "city": "West Hollywood", "div": "VII", "region": "Central", "zipcode": "90046-6408" }, "geometry": { "type": "Point", "coordinates": [ -118.356470150454996, 34.091036952840703 ] } },
{ "type": "Feature", "properties": { "stanum": 154, "address": "401 N. Second Avenue", "city": "Covina", "div": "II", "region": "East", "zipcode": "91723" }, "geometry": { "type": "Point", "coordinates": [ -117.888334767676, 34.089577398637502 ] } },
{ "type": "Feature", "properties": { "stanum": 7, "address": "846 N. San Vincente Blvd.", "city": "West Hollywood", "div": "VII", "region": "Central", "zipcode": "90069-4007" }, "geometry": { "type": "Point", "coordinates": [ -118.385080531151999, 34.086987730907197 ] } },
{ "type": "Feature", "properties": { "stanum": 72, "address": "1832 S. Decker Canyon Road", "city": "Malibu", "div": "VII", "region": "Central", "zipcode": "90265-9613" }, "geometry": { "type": "Point", "coordinates": [ -118.881135906097995, 34.076631073950502 ] } },
{ "type": "Feature", "properties": { "stanum": 69, "address": "401 S. Topanga Canyon Blvd.", "city": "Topanga", "div": "VII", "region": "Central", "zipcode": "90290-9774" }, "geometry": { "type": "Point", "coordinates": [ -118.600063731432996, 34.083851038441203 ] } },
{ "type": "Feature", "properties": { "stanum": 42, "address": "9319 E. Valley Blvd.", "city": "Rosemead", "div": "IX", "region": "East", "zipcode": "91770-1923" }, "geometry": { "type": "Point", "coordinates": [ -118.066594777340001, 34.081359160768301 ] } },
{ "type": "Feature", "properties": { "stanum": 67, "address": "25801 Piuma Road", "city": "Calabasas", "div": "VII", "region": "Central", "zipcode": "91302-1511" }, "geometry": { "type": "Point", "coordinates": [ -118.694085570534, 34.078083423195103 ] } },
{ "type": "Feature", "properties": { "stanum": 167, "address": "11567 Bryant Road", "city": "El Monte", "div": "IX", "region": "East", "zipcode": "91732" }, "geometry": { "type": "Point", "coordinates": [ -118.020809200241004, 34.0789771805104 ] } },
{ "type": "Feature", "properties": { "stanum": 166, "address": "3615 Santa Anita Ave.", "city": "El Monte", "div": "IX", "region": "East", "zipcode": "91731" }, "geometry": { "type": "Point", "coordinates": [ -118.041772205268998, 34.075137793545103 ] } },
{ "type": "Feature", "properties": { "stanum": 141, "address": "1124 W. Puente Avenue", "city": "San Dimas", "div": "II", "region": "East", "zipcode": "91773-4414" }, "geometry": { "type": "Point", "coordinates": [ -117.829460512618994, 34.074598358269299 ] } },
{ "type": "Feature", "properties": { "stanum": 182, "address": "1059 N. White Ave.", "city": "Pomona", "div": "VIII", "region": "East", "zipcode": "91768-3038" }, "geometry": { "type": "Point", "coordinates": [ -117.759563390487997, 34.067689116376997 ] } },
{ "type": "Feature", "properties": { "stanum": 183, "address": "708 N. San Antonio Ave", "city": "Pomona", "div": "VIII", "region": "East", "zipcode": "91767-4910" }, "geometry": { "type": "Point", "coordinates": [ -117.736357503131003, 34.065620318809501 ] } },
{ "type": "Feature", "properties": { "stanum": 168, "address": "3207 Cogswell Rd.", "city": "El Monte", "div": "IX", "region": "East", "zipcode": "91732" }, "geometry": { "type": "Point", "coordinates": [ -118.018433297266995, 34.064588036529898 ] } },
{ "type": "Feature", "properties": { "stanum": 184, "address": "1980 W. Orange Grove Ave.", "city": "Pomona", "div": "VIII", "region": "East", "zipcode": "91768-2046" }, "geometry": { "type": "Point", "coordinates": [ -117.784820244855993, 34.062970576287398 ] } },
{ "type": "Feature", "properties": { "stanum": 4, "address": "2644 N. San Gabriel Blvd.", "city": "Rosemead", "div": "IX", "region": "East", "zipcode": "91770-3254" }, "geometry": { "type": "Point", "coordinates": [ -118.090176190728002, 34.0602502239229 ] } },
{ "type": "Feature", "properties": { "stanum": 90, "address": "10115 E. Rush Street", "city": "So. El Monte", "div": "IX", "region": "East", "zipcode": "91733-3223" }, "geometry": { "type": "Point", "coordinates": [ -118.049368512168996, 34.052105778604798 ] } },
{ "type": "Feature", "properties": { "stanum": 1, "address": "1108 N. Eastern Avenue", "city": "Los Angeles", "div": "IX", "region": "East", "zipcode": "90063-3216" }, "geometry": { "type": "Point", "coordinates": [ -118.170778488810996, 34.049829801252898 ] } },
{ "type": "Feature", "properties": { "stanum": 187, "address": "3325 W. Temple Ave", "city": "Pomona", "div": "VIII", "region": "East", "zipcode": "91768-3256" }, "geometry": { "type": "Point", "coordinates": [ -117.808283149380003, 34.046305553658797 ] } },
{ "type": "Feature", "properties": { "stanum": 87, "address": "140 S. Second Avenue", "city": "Industry", "div": "VIII", "region": "East", "zipcode": "91746-2413" }, "geometry": { "type": "Point", "coordinates": [ -117.993313227898994, 34.046063176508902 ] } },
{ "type": "Feature", "properties": { "stanum": 146, "address": "20604 E. Loyalton Drive", "city": "Walnut", "div": "VIII", "region": "East", "zipcode": "91789-1216" }, "geometry": { "type": "Point", "coordinates": [ -117.852792765247997, 34.045093623221803 ] } },
{ "type": "Feature", "properties": { "stanum": 99, "address": "32550 Pacific Coast Highway", "city": "Malibu", "div": "VII", "region": "Central", "zipcode": "90265-253" }, "geometry": { "type": "Point", "coordinates": [ -118.883607458838995, 34.039939185280197 ] } },
{ "type": "Feature", "properties": { "stanum": 70, "address": "3970 Carbon Canyon Road", "city": "Malibu", "div": "VII", "region": "Central", "zipcode": "90265-5005" }, "geometry": { "type": "Point", "coordinates": [ -118.649623255026, 34.038449823269602 ] } },
{ "type": "Feature", "properties": { "stanum": 185, "address": "925 E. Lexington Ave.", "city": "Pomona", "div": "VIII", "region": "East", "zipcode": "91766-5204" }, "geometry": { "type": "Point", "coordinates": [ -117.737982486871005, 34.037531004676303 ] } },
{ "type": "Feature", "properties": { "stanum": 26, "address": "15336 E. Elliott Avenue", "city": "La Puente", "div": "VIII", "region": "East", "zipcode": "91744-2710" }, "geometry": { "type": "Point", "coordinates": [ -117.951328001066997, 34.036270482998901 ] } },
{ "type": "Feature", "properties": { "stanum": 88, "address": "23720 W. Malibu Road", "city": "Malibu", "div": "VII", "region": "Central", "zipcode": "90265-4603" }, "geometry": { "type": "Point", "coordinates": [ -118.691781664095004, 34.033548217650299 ] } },
{ "type": "Feature", "properties": { "stanum": 188, "address": "18-A Village Loop Rd.", "city": "Pomona", "div": "VIII", "region": "East", "zipcode": "91766-4811 " }, "geometry": { "type": "Point", "coordinates": [ -117.770034717377996, 34.0337018961105 ] } },
{ "type": "Feature", "properties": { "stanum": 121, "address": "346 Armitos Place", "city": "Diamond Bar", "div": "VIII", "region": "East", "zipcode": "91765-1838" }, "geometry": { "type": "Point", "coordinates": [ -117.793271570428004, 34.025995288418201 ] } },
{ "type": "Feature", "properties": { "stanum": 3, "address": "930 S. Eastern Avenue", "city": "Los Angeles", "div": "IX", "region": "East", "zipcode": "90022-4801" }, "geometry": { "type": "Point", "coordinates": [ -118.173586636457003, 34.023010435883698 ] } },
{ "type": "Feature", "properties": { "stanum": 71, "address": "28722 W. Pacific Coast Hwy.", "city": "Malibu", "div": "VII", "region": "Central", "zipcode": "90265-3902" }, "geometry": { "type": "Point", "coordinates": [ -118.797383900536005, 34.020163389614403 ] } },
{ "type": "Feature", "properties": { "stanum": 61, "address": "20011 La Puente Road", "city": "Walnut", "div": "VIII", "region": "East", "zipcode": "91789-1719" }, "geometry": { "type": "Point", "coordinates": [ -117.865657844409, 34.020797269143898 ] } },
{ "type": "Feature", "properties": { "stanum": 22, "address": "928 S. Gerhart Avenue", "city": "Commerce", "div": "IX", "region": "East", "zipcode": "90022-4108" }, "geometry": { "type": "Point", "coordinates": [ -118.146922398754, 34.017330208461999 ] } },
{ "type": "Feature", "properties": { "stanum": 43, "address": "921 S. Stimson Avenue", "city": "La Puente", "div": "VIII", "region": "East", "zipcode": "91746-2413" }, "geometry": { "type": "Point", "coordinates": [ -117.955762939636998, 34.010342380717702 ] } },
{ "type": "Feature", "properties": { "stanum": 120, "address": "1051 S. Grand Avenue", "city": "Diamond Bar", "div": "VIII", "region": "East", "zipcode": "91765-2210" }, "geometry": { "type": "Point", "coordinates": [ -117.814228878389997, 34.001905553112799 ] } },
{ "type": "Feature", "properties": { "stanum": 40, "address": "4864 S. Durfee Avenue", "city": "Pico Rivera", "div": "IV", "region": "East", "zipcode": "90660-2459" }, "geometry": { "type": "Point", "coordinates": [ -118.078388832475, 34.001434011328797 ] } },
{ "type": "Feature", "properties": { "stanum": 50, "address": "2327 S. Saybrook Avenue", "city": "Commerce", "div": "IX", "region": "East", "zipcode": "90040-1721" }, "geometry": { "type": "Point", "coordinates": [ -118.140597680857994, 34.000939292641 ] } },
{ "type": "Feature", "properties": { "stanum": 118, "address": "17056 Gale Avenue", "city": "City of Industry", "div": "VIII", "region": "East", "zipcode": "91748-1511" }, "geometry": { "type": "Point", "coordinates": [ -117.935494466662007, 34.000240724625201 ] } },
{ "type": "Feature", "properties": { "stanum": 91, "address": "2691 S. Turnbull Canyon Road", "city": "Hacienda Heights", "div": "VIII", "region": "East", "zipcode": "91745-5135" }, "geometry": { "type": "Point", "coordinates": [ -117.988444429029997, 33.9965423160467 ] } },
{ "type": "Feature", "properties": { "stanum": 145, "address": "1525 S. Nogales Street", "city": "Rowland Heights", "div": "VIII", "region": "East", "zipcode": "91748-2256" }, "geometry": { "type": "Point", "coordinates": [ -117.889535653530999, 33.989314916001703 ] } },
{ "type": "Feature", "properties": { "stanum": 27, "address": "6031 Rickenbacker Road", "city": "Commerce", "div": "IX", "region": "East", "zipcode": "90040-3031" }, "geometry": { "type": "Point", "coordinates": [ -118.154113296454, 33.988483250704803 ] } },
{ "type": "Feature", "properties": { "stanum": 58, "address": "5757 S. Fairfax Avenue", "city": "Los Angeles", "div": "VII", "region": "Central", "zipcode": "90056-1243" }, "geometry": { "type": "Point", "coordinates": [ -118.363156409084993, 33.987899533623199 ] } },
{ "type": "Feature", "properties": { "stanum": 110, "address": "4433 Admiralty Way", "city": "Marina Del Rey", "div": "VII", "region": "Central", "zipcode": "90292-5415" }, "geometry": { "type": "Point", "coordinates": [ -118.448583347341994, 33.983925580525302 ] } },
{ "type": "Feature", "properties": { "stanum": 164, "address": "6301 S. Santa Fe Ave.", "city": "Huntington Park", "div": "VI", "region": "Central", "zipcode": "90255-3805" }, "geometry": { "type": "Point", "coordinates": [ -118.230584626566994, 33.983337587289498 ] } },
{ "type": "Feature", "properties": { "stanum": 103, "address": "7300 S. Paramount Blvd.", "city": "Pico Rivera", "div": "IV", "region": "East", "zipcode": "90660-3714" }, "geometry": { "type": "Point", "coordinates": [ -118.108175427969002, 33.982786385379796 ] } },
{ "type": "Feature", "properties": { "stanum": 17, "address": "12006 Hadley Street", "city": "Whittier", "div": "IV", "region": "East", "zipcode": "90601-3910" }, "geometry": { "type": "Point", "coordinates": [ -118.048868985488994, 33.9825062273081 ] } },
{ "type": "Feature", "properties": { "stanum": 163, "address": "6320 Pine Ave.", "city": "Bell", "div": "IX", "region": "East", "zipcode": "90201-1221" }, "geometry": { "type": "Point", "coordinates": [ -118.188523909951996, 33.979430021861297 ] } },
{ "type": "Feature", "properties": { "stanum": 165, "address": "3255 Saturn Ave.", "city": "Huntington Park", "div": "VI", "region": "Central", "zipcode": "90255-5449" }, "geometry": { "type": "Point", "coordinates": [ -118.208506149010006, 33.976275583227299 ] } },
{ "type": "Feature", "properties": { "stanum": 119, "address": "20480 E. Pathfinder Road", "city": "Walnut", "div": "VIII", "region": "East", "zipcode": "91789-4620" }, "geometry": { "type": "Point", "coordinates": [ -117.855450000063001, 33.976352312274798 ] } },
{ "type": "Feature", "properties": { "stanum": 28, "address": "7733 Greenleaf Avenue", "city": "Whittier", "div": "IV", "region": "East", "zipcode": "90602-2195" }, "geometry": { "type": "Point", "coordinates": [ -118.037682255578005, 33.970900562710199 ] } },
{ "type": "Feature", "properties": { "stanum": 25, "address": "9209 E. Saluson Avenue", "city": "Pico Rivera", "div": "IV", "region": "East", "zipcode": "90660-4524" }, "geometry": { "type": "Point", "coordinates": [ -118.100416591628999, 33.969870641508898 ] } },
{ "type": "Feature", "properties": { "stanum": 16, "address": "8010 S. Compton Avenue", "city": "Los Angeles", "div": "VI", "region": "Central", "zipcode": "9001-1437" }, "geometry": { "type": "Point", "coordinates": [ -118.247417960232994, 33.966264100495103 ] } },
{ "type": "Feature", "properties": { "stanum": 171, "address": "141 W. Regent St.", "city": "Inglewood", "div": "VI", "region": "Central", "zipcode": "90301" }, "geometry": { "type": "Point", "coordinates": [ -118.356821308156995, 33.964721636875304 ] } },
{ "type": "Feature", "properties": { "stanum": 173, "address": "9001 S. Crenshaw Blvd.", "city": "Inglewood", "div": "VI", "region": "Central", "zipcode": "90305" }, "geometry": { "type": "Point", "coordinates": [ -118.326757587022001, 33.955727541696 ] } },
{ "type": "Feature", "properties": { "stanum": 54, "address": "4867 Southern Avenue", "city": "South Gate", "div": "VI", "region": "Central", "zipcode": "90280-3466" }, "geometry": { "type": "Point", "coordinates": [ -118.183871185805998, 33.948498122022698 ] } },
{ "type": "Feature", "properties": { "stanum": 59, "address": "10021 Scott Avenue", "city": "Whittier", "div": "IV", "region": "East", "zipcode": "90603-2119" }, "geometry": { "type": "Point", "coordinates": [ -118.001066116686005, 33.946447546444297 ] } },
{ "type": "Feature", "properties": { "stanum": 14, "address": "1401 W. 108th Street", "city": "Los Angeles", "div": "VI", "region": "Central", "zipcode": "90047-4905" }, "geometry": { "type": "Point", "coordinates": [ -118.300563085914007, 33.938499628085403 ] } },
{ "type": "Feature", "properties": { "stanum": 170, "address": "10701 S. Crenshaw Blvd.", "city": "Inglewood", "div": "VI", "region": "Central", "zipcode": "90303" }, "geometry": { "type": "Point", "coordinates": [ -118.326838421123, 33.938414794308898 ] } },
{ "type": "Feature", "properties": { "stanum": 18, "address": "4518 W. Lennox Blvd.", "city": "Inglewood", "div": "VI", "region": "Central", "zipcode": "90304-2216" }, "geometry": { "type": "Point", "coordinates": [ -118.355611087971994, 33.937946967119998 ] } },
{ "type": "Feature", "properties": { "stanum": 96, "address": "10630 S. Mills Avenue", "city": "Whittier", "div": "IV", "region": "East", "zipcode": "90604-2441" }, "geometry": { "type": "Point", "coordinates": [ -118.039987421608004, 33.937078684749501 ] } },
{ "type": "Feature", "properties": { "stanum": 191, "address": "850 W. La Habra Blvd.", "city": "La Habra", "div": "IV", "region": "East", "zipcode": "90631" }, "geometry": { "type": "Point", "coordinates": [ -117.955702297892003, 33.931653626031697 ] } },
{ "type": "Feature", "properties": { "stanum": 147, "address": "3161 E. Imperial Highway", "city": "Lynwood ", "div": "VI", "region": "Central", "zipcode": "90262" }, "geometry": { "type": "Point", "coordinates": [ -118.214258421728005, 33.930525483417597 ] } },
{ "type": "Feature", "properties": { "stanum": 15, "address": "11460 Santa Gertrudes", "city": "Whittier", "div": "IV", "region": "East", "zipcode": "90604-3411" }, "geometry": { "type": "Point", "coordinates": [ -117.993432954308005, 33.929695849546299 ] } },
{ "type": "Feature", "properties": { "stanum": 192, "address": "520 S. Harbor Blvd.", "city": "La Habra", "div": "IV", "region": "East", "zipcode": "90631" }, "geometry": { "type": "Point", "coordinates": [ -117.932556130167001, 33.926983939412303 ] } },
{ "type": "Feature", "properties": { "stanum": 41, "address": "1815 E. 120th Street", "city": "Los Angeles", "div": "I", "region": "Central", "zipcode": "90059-3005" }, "geometry": { "type": "Point", "coordinates": [ -118.240213714847997, 33.924881272276302 ] } },
{ "type": "Feature", "properties": { "stanum": 57, "address": "5720 Gardendale Street", "city": "South Gate", "div": "VI", "region": "Central", "zipcode": "90280-7806" }, "geometry": { "type": "Point", "coordinates": [ -118.168260872399003, 33.922381359746097 ] } },
{ "type": "Feature", "properties": { "stanum": 148, "address": "4264 Martin Luther King Jr Bl", "city": "Lynwood", "div": "VI", "region": "Central", "zipcode": "90602 " }, "geometry": { "type": "Point", "coordinates": [ -118.190376108189994, 33.922179135658602 ] } },
{ "type": "Feature", "properties": { "stanum": 162, "address": "12151 Crenshaw Blvd.", "city": "Hawthorne", "div": "I", "region": "Central", "zipcode": "90250-3301" }, "geometry": { "type": "Point", "coordinates": [ -118.326831630878999, 33.921884758966598 ] } },
{ "type": "Feature", "properties": { "stanum": 161, "address": "4475 West El Segundo Blvd.", "city": "Hawthorne", "div": "I", "region": "Central", "zipcode": "90250-4411" }, "geometry": { "type": "Point", "coordinates": [ -118.354424899761995, 33.916672101117399 ] } },
{ "type": "Feature", "properties": { "stanum": 20, "address": "12110 E. Adoree Street", "city": "Norwalk", "div": "IV", "region": "East", "zipcode": "90650-3002" }, "geometry": { "type": "Point", "coordinates": [ -118.074163414097995, 33.9131350247035 ] } },
{ "type": "Feature", "properties": { "stanum": 159, "address": "2030 W. 135th Street", "city": "Gardena", "div": "I", "region": "Central", "zipcode": "90249" }, "geometry": { "type": "Point", "coordinates": [ -118.314668078173995, 33.908972688417201 ] } },
{ "type": "Feature", "properties": { "stanum": 49, "address": "13820 S. La Mirada Blvd.", "city": "La Mirada", "div": "IV", "region": "East", "zipcode": "90638-3029" }, "geometry": { "type": "Point", "coordinates": [ -118.011415080581997, 33.905073853135598 ] } },
{ "type": "Feature", "properties": { "stanum": 160, "address": "5323 West Rosecrans Avenue", "city": "Hawthorne", "div": "I", "region": "Central", "zipcode": "90250-6622" }, "geometry": { "type": "Point", "coordinates": [ -118.372926400756995, 33.902135799081201 ] } },
{ "type": "Feature", "properties": { "stanum": 98, "address": "9814 Maplewood Street", "city": "Bellflower", "div": "IV", "region": "East", "zipcode": "9070-3103" }, "geometry": { "type": "Point", "coordinates": [ -118.124933717399998, 33.899878080126697 ] } },
{ "type": "Feature", "properties": { "stanum": 21, "address": "4312 W. 147th Street", "city": "Lawndale", "div": "I", "region": "Central", "zipcode": "90260-1509" }, "geometry": { "type": "Point", "coordinates": [ -118.351129757451005, 33.897989837756199 ] } },
{ "type": "Feature", "properties": { "stanum": 31, "address": "7521 E. Somerset Blvd.", "city": "Paramount", "div": "IV", "region": "East", "zipcode": "90723-4003" }, "geometry": { "type": "Point", "coordinates": [ -118.168054464332997, 33.896707572725902 ] } },
{ "type": "Feature", "properties": { "stanum": 95, "address": "137 W. Redondo Beach Blvd.", "city": "Gardena", "div": "I", "region": "Central", "zipcode": "90248-2220" }, "geometry": { "type": "Point", "coordinates": [ -118.277612073537, 33.893166761432902 ] } },
{ "type": "Feature", "properties": { "stanum": 115, "address": "11317 Alondra Blvd.", "city": "Norwalk", "div": "IV", "region": "East", "zipcode": "90650-6225" }, "geometry": { "type": "Point", "coordinates": [ -118.092139965436999, 33.887819493260103 ] } },
{ "type": "Feature", "properties": { "stanum": 158, "address": "1650 W. 162nd Street", "city": "Gardena", "div": "I", "region": "Central", "zipcode": "90247" }, "geometry": { "type": "Point", "coordinates": [ -118.306065650034, 33.883496914555003 ] } },
{ "type": "Feature", "properties": { "stanum": 23, "address": "9548 E. Flower Street", "city": "Bellflower", "div": "IV", "region": "East", "zipcode": "90706-5708" }, "geometry": { "type": "Point", "coordinates": [ -118.130146902147999, 33.881803289604399 ] } },
{ "type": "Feature", "properties": { "stanum": 35, "address": "13717 Artesia Blvd.", "city": "Cerritos", "div": "IV", "region": "East", "zipcode": "90701-4804" }, "geometry": { "type": "Point", "coordinates": [ -118.039411321062005, 33.873632569063702 ] } },
{ "type": "Feature", "properties": { "stanum": 116, "address": "755 E. Victoria Street", "city": "Carson", "div": "I", "region": "Central", "zipcode": "90746-1534" }, "geometry": { "type": "Point", "coordinates": [ -118.261871941571997, 33.867404279078599 ] } },
{ "type": "Feature", "properties": { "stanum": 105, "address": "18915 S. Santa Fe Avenue", "city": "Compton", "div": "I", "region": "Central", "zipcode": "90221-5907" }, "geometry": { "type": "Point", "coordinates": [ -118.21654636945, 33.859802744513502 ] } },
{ "type": "Feature", "properties": { "stanum": 30, "address": "19030 Pioneer Blvd.", "city": "Cerritos", "div": "IV", "region": "East", "zipcode": "90701-6602" }, "geometry": { "type": "Point", "coordinates": [ -118.081696192026001, 33.8575604856347 ] } },
{ "type": "Feature", "properties": { "stanum": 45, "address": "4020 Candlewood Street", "city": "Lakewood", "div": "IV", "region": "East", "zipcode": "90712-1620" }, "geometry": { "type": "Point", "coordinates": [ -118.144207270256004, 33.853563913475199 ] } },
{ "type": "Feature", "properties": { "stanum": 10, "address": "1860 E. Del Amo", "city": "Carson", "div": "I", "region": "Central", "zipcode": "90746-2940" }, "geometry": { "type": "Point", "coordinates": [ -118.235487217027995, 33.846425147051903 ] } },
{ "type": "Feature", "properties": { "stanum": 94, "address": "6421 E. Turnergrove Drive", "city": "Lakewood", "div": "IV", "region": "East", "zipcode": "90713-2706" }, "geometry": { "type": "Point", "coordinates": [ -118.106860094889001, 33.846408006754501 ] } },
{ "type": "Feature", "properties": { "stanum": 34, "address": "21207 S. Norwalk Blvd.", "city": "Hawaiian Gardens", "div": "IV", "region": "East", "zipcode": "90716-1020" }, "geometry": { "type": "Point", "coordinates": [ -118.072275165049007, 33.8369881040514 ] } },
{ "type": "Feature", "properties": { "stanum": 122, "address": "2600 Greenmeadow Road", "city": "Lakewood", "div": "IV", "region": "East", "zipcode": "90712-3906" }, "geometry": { "type": "Point", "coordinates": [ -118.160839020745996, 33.833672694605902 ] } },
{ "type": "Feature", "properties": { "stanum": 36, "address": "127 W. 223rd Street", "city": "Carson", "div": "I", "region": "Central", "zipcode": "90745-3702" }, "geometry": { "type": "Point", "coordinates": [ -118.277133626384995, 33.824693654640797 ] } },
{ "type": "Feature", "properties": { "stanum": 127, "address": "2049 E. 223rd Street", "city": "Carson", "div": "I", "region": "Central", "zipcode": "90810-1061" }, "geometry": { "type": "Point", "coordinates": [ -118.238362852140995, 33.8246464498894 ] } },
{ "type": "Feature", "properties": { "stanum": 60, "address": "2300 East 27th Street", "city": "Signal Hill", "div": "IV", "region": "East", "zipcode": "90705" }, "geometry": { "type": "Point", "coordinates": [ -118.164100620208998, 33.805997147656299 ] } },
{ "type": "Feature", "properties": { "stanum": 156, "address": "24525 Copper Hill Drive", "city": "Valencia", "div": "III", "region": "North", "zipcode": "91354" }, "geometry": { "type": "Point", "coordinates": [ -118.566545106225007, 34.453999525209497 ] } },
{ "type": "Feature", "properties": { "stanum": 150, "address": "19190 Golden Valley Rd", "city": "Santa Clarita", "div": "III", "region": "North", "zipcode": "91387" }, "geometry": { "type": "Point", "coordinates": [ -118.464999084411005, 34.392249394327898 ] } },
{ "type": "Feature", "properties": { "stanum": 38, "address": "3907 W. 54th Street", "city": "Los Angeles", "div": "VII", "region": "Central", "zipcode": "90043-2203" }, "geometry": { "type": "Point", "coordinates": [ -118.342435493337007, 33.993283763219701 ] } },
{ "type": "Feature", "properties": { "stanum": 39, "address": "7000 Garfield Avenue", "city": "Bell Gardens", "div": "IX", "region": "East", "zipcode": "90201" }, "geometry": { "type": "Point", "coordinates": [ -118.149253341614994, 33.968942758708401 ] } },
{ "type": "Feature", "properties": { "stanum": 55, "address": "945 Avalon Canyon Rd.", "city": "Avalon", "div": "I", "region": "Central", "zipcode": "90704-0663" }, "geometry": { "type": "Point", "coordinates": [ -118.335489802721, 33.333126260823697 ] } },
{ "type": "Feature", "properties": { "stanum": 66, "address": "2764 E. Eaton Canyon Dr ", "city": "Pasadena", "div": "III", "region": "North", "zipcode": "91107-1005" }, "geometry": { "type": "Point", "coordinates": [ -118.093794901109007, 34.174430874035103 ] } },
{ "type": "Feature", "properties": { "stanum": 74, "address": "12587 N. Dexter Park Road", "city": "San Fernando", "div": "III", "region": "North", "zipcode": "91342-5613" }, "geometry": { "type": "Point", "coordinates": [ -118.375785525319003, 34.2958436253112 ] } },
{ "type": "Feature", "properties": { "stanum": 76, "address": "27223 Henry Mayo Drive", "city": "Valencia", "div": "III", "region": "North", "zipcode": "91355-1009" }, "geometry": { "type": "Point", "coordinates": [ -118.610506595081006, 34.4390550597901 ] } },
{ "type": "Feature", "properties": { "stanum": 89, "address": "29575 Canwood St.", "city": "Agoura Hills ", "div": "VII", "region": "Central", "zipcode": "91301 " }, "geometry": { "type": "Point", "coordinates": [ -118.769256666443994, 34.147878061418297 ] } },
{ "type": "Feature", "properties": { "stanum": 124, "address": "25870 Hemingway Av.", "city": "Stevenson Ranch", "div": "III", "region": "North", "zipcode": "91381" }, "geometry": { "type": "Point", "coordinates": [ -118.582256731268998, 34.387471656869202 ] } },
{ "type": "Feature", "properties": { "stanum": 128, "address": "28450 Whites Canyon Road", "city": "Santa Clarita", "div": "III", "region": "North", "zipcode": "91351" }, "geometry": { "type": "Point", "coordinates": [ -118.472586048484004, 34.441934303057401 ] } },
{ "type": "Feature", "properties": { "stanum": 132, "address": "29310 Sand Canyon Road", "city": "Santa Clarita", "div": "III", "region": "North", "zipcode": "91387" }, "geometry": { "type": "Point", "coordinates": [ -118.417657567126994, 34.439262532242097 ] } },
{ "type": "Feature", "properties": { "stanum": 155, "address": "Two Harbors", "city": "Two Harbors", "div": "I", "region": "Central", "zipcode": "90704" }, "geometry": { "type": "Point", "coordinates": [ -118.500393858452, 33.4411652598736 ] } },
{ "type": "Feature", "properties": { "stanum": 157, "address": "15921 Spunky Canyon Road", "city": "Green Valley", "div": "V", "region": "North", "zipcode": "91390" }, "geometry": { "type": "Point", "coordinates": [ -118.410145649246004, 34.617945344149099 ] } },
{ "type": "Feature", "properties": { "stanum": 194, "address": "13540 S. Beach Blvd.", "city": "La Mirada", "div": "IV", "region": "East", "zipcode": "90638" }, "geometry": { "type": "Point", "coordinates": [ -117.976797397962997, 33.909142719374202 ] } },
{ "type": "Feature", "properties": { "stanum": 172, "address": "810 Centinela Avenue", "city": "Inglewood", "div": "VI", "region": "Central", "zipcode": "90302" }, "geometry": { "type": "Point", "coordinates": [ -118.353376804353999, 33.976156084263302 ] } },
{ "type": "Feature", "properties": { "stanum": 143, "address": "28580 Hasley Canyon Road", "city": "Castaic", "div": "III", "region": "North", "zipcode": "91355" }, "geometry": { "type": "Point", "coordinates": [ -118.633718210135996, 34.454363909665098 ] } },
{ "type": "Feature", "properties": { "stanum": 97, "address": "18543 E. Sierra Madre Avenue", "city": "Azusa", "div": "II", "region": "East", "zipcode": "91702-1552" }, "geometry": { "type": "Point", "coordinates": [ -117.891004279141995, 34.146757327928697 ] } },
{ "type": "Feature", "properties": { "stanum": 2, "address": "340 Palos Verdes Drive W.", "city": "Palos Verdes Estates", "div": "I", "region": "Central", "zipcode": "90274-1299" }, "geometry": { "type": "Point", "coordinates": [ -118.391647470986996, 33.799931265531399 ] } },
{ "type": "Feature", "properties": { "stanum": 6, "address": "25517 S. Narbonne Avenue", "city": "Lomita", "div": "I", "region": "Central", "zipcode": "90717-2511" }, "geometry": { "type": "Point", "coordinates": [ -118.320240081975001, 33.791853429181103 ] } },
{ "type": "Feature", "properties": { "stanum": 106, "address": "27413 Indian Peak Road", "city": "Rolling Hills Estate", "div": "I", "region": "Central", "zipcode": "90274-3503" }, "geometry": { "type": "Point", "coordinates": [ -118.376320086804, 33.772096188676997 ] } },
{ "type": "Feature", "properties": { "stanum": 56, "address": "12 Crest Road West", "city": "Rolling Hills", "div": "I", "region": "Central", "zipcode": "90274-5058" }, "geometry": { "type": "Point", "coordinates": [ -118.354062062362004, 33.756683616509598 ] } },
{ "type": "Feature", "properties": { "stanum": 83, "address": "83 Miraleste Plaza", "city": "Rancho Palos Verdes", "div": "I", "region": "Central", "zipcode": "90274-6525" }, "geometry": { "type": "Point", "coordinates": [ -118.325103555184995, 33.749189308781503 ] } },
{ "type": "Feature", "properties": { "stanum": 53, "address": "6124 W. Palos Verdes Drive S", "city": "Rancho Palos Verdes", "div": "I", "region": "Central", "zipcode": "90274-5935" }, "geometry": { "type": "Point", "coordinates": [ -118.384574800718994, 33.7447689456747 ] } },
{ "type": "Feature", "properties": { "stanum": 104, "address": "26901 Golden Valley Rd.", "city": "Santa Clarita", "div": "III", "region": "North", "zipcode": "91351" }, "geometry": { "type": "Point", "coordinates": [ -118.506746782031001, 34.4282539125646 ] } },
{ "type": "Feature", "properties": { "stanum": 100, "address": "540 Pier Avenue", "city": "Hermosa Beach", "div": "I", "region": "Central", "zipcode": "90254" }, "geometry": { "type": "Point", "coordinates": [ -118.396642403328002, 33.864145092835699 ] } },
{ "type": "Feature", "properties": { "stanum": 13, "address": "3375 Fruitland Ave.", "city": "Vernon", "div": "VI", "region": "Central", "zipcode": "90058" }, "geometry": { "type": "Point", "coordinates": [ -118.205583438180994, 33.9969700486063 ] } },
{ "type": "Feature", "properties": { "stanum": 52, "address": "4301 S. Santa Fe Ave.", "city": "Vernon", "div": "VI", "region": "Central", "zipcode": "90058" }, "geometry": { "type": "Point", "coordinates": [ -118.230512185023997, 34.005512071635103 ] } }
]
}
