{
"type": "FeatureCollection",
"name": "lafd_stations",
"crs": { "type": "name", "properties": { "name": "urn:ogc:def:crs:OGC:1.3:CRS84" } },
"features": [
{ "type": "Feature", "properties": { "stanum": "83", "address": "4960 BALBOA BLVD", "zipcode": 91436, "deptname": "VALLEY BUREAU" }, "geometry": { "type": "Point", "coordinates": [ -118.500588373129006, 34.161048079295298 ] } },
{ "type": "Feature", "properties": { "stanum": "7", "address": "14630 PLUMMER ST", "zipcode": 91402, "deptname": "FIRE" }, "geometry": { "type": "Point", "coordinates": [ -118.451439714065998, 34.2423869697231 ] } },
{ "type": "Feature", "properties": { "stanum": "14", "address": "3401 S CENTRAL AV", "zipcode": 90011, "deptname": "FIRE" }, "geometry": { "type": "Point", "coordinates": [ -118.256850093276, 34.012745663779 ] } },
{ "type": "Feature", "properties": { "stanum": "8", "address": "11351 TAMPA AVE", "zipcode": 91326, "deptname": "FIRE" }, "geometry": { "type": "Point", "coordinates": [ -118.558917578137994, 34.276801969341001 ] } },
{ "type": "Feature", "properties": { "stanum": "36", "address": "1005 N GAFFEY ST", "zipcode": 90732, "deptname": "FIRE" }, "geometry": { "type": "Point", "coordinates": [ -118.293442254010998, 33.753085745153697 ] } },
{ "type": "Feature", "properties": { "stanum": "23", "address": "17281 SUNSET BLVD", "zipcode": 90272, "deptname": "FIRE" }, "geometry": { "type": "Point", "coordinates": [ -118.554259746913999, 34.042531095241799 ] } },
{ "type": "Feature", "properties": { "stanum": "6", "address": "326 N. VIRGIL AVE.", "zipcode": 90004, "deptname": "FIRE" }, "geometry": { "type": "Point", "coordinates": [ -118.286542269161004, 34.077082773631503 ] } },
{ "type": "Feature", "properties": { "stanum": "61", "address": "5821 W 3RD ST", "zipcode": 90036, "deptname": "FIRE" }, "geometry": { "type": "Point", "coordinates": [ -118.347084493634995, 34.069411932728599 ] } },
{ "type": "Feature", "properties": { "stanum": "97", "address": "8021 MULHOLLAND DR", "zipcode": 90046, "deptname": "FIRE" }, "geometry": { "type": "Point", "coordinates": [ -118.374561744727998, 34.1260084214926 ] } },
{ "type": "Feature", "properties": { "stanum": "68", "address": "5023 W WASHINGTON BLVD", "zipcode": 90019, "deptname": "FIRE" }, "geometry": { "type": "Point", "coordinates": [ -118.349247279310006, 34.041025564682499 ] } },
{ "type": "Feature", "properties": { "stanum": "71", "address": "107 S BEVERLY GLEN BLVD", "zipcode": 90024, "deptname": "FIRE" }, "geometry": { "type": "Point", "coordinates": [ -118.435531078593996, 34.080520889005001 ] } },
{ "type": "Feature", "properties": { "stanum": "69", "address": "15045 SUNSET BLVD", "zipcode": 90272, "deptname": "FIRE" }, "geometry": { "type": "Point", "coordinates": [ -118.521900047149998, 34.044571347949699 ] } },
{ "type": "Feature", "properties": { "stanum": "63", "address": "1930 SHELL AVE", "zipcode": 90291, "deptname": "FIRE" }, "geometry": { "type": "Point", "coordinates": [ -118.458376150754006, 33.991124555232602 ] } },
{ "type": "Feature", "properties": { "stanum": "35", "address": "1601 N HILLHURST AVE", "zipcode": 90027, "deptname": "FIRE" }, "geometry": { "type": "Point", "coordinates": [ -118.287746538952007, 34.100217673199502 ] } },
{ "type": "Feature", "properties": { "stanum": "75", "address": "15345 SAN FERNANDO MISSION BLV", "zipcode": 91345, "deptname": "FIRE" }, "geometry": { "type": "Point", "coordinates": [ -118.466578044182, 34.272461108974397 ] } },
{ "type": "Feature", "properties": { "stanum": "27", "address": "1327 N COLE AVE", "zipcode": 90028, "deptname": "FIRE" }, "geometry": { "type": "Point", "coordinates": [ -118.330161785073003, 34.095626885174198 ] } },
{ "type": "Feature", "properties": { "stanum": "39", "address": "14615 OXNARD ST", "zipcode": 91411, "deptname": "FIRE" }, "geometry": { "type": "Point", "coordinates": [ -118.451199636612003, 34.179631686169799 ] } },
{ "type": "Feature", "properties": { "stanum": "92", "address": "10556 W. PICO BLVD", "zipcode": 90064, "deptname": "FIRE" }, "geometry": { "type": "Point", "coordinates": [ -118.420372852591001, 34.044045295325397 ] } },
{ "type": "Feature", "properties": { "stanum": "50", "address": "3036 FLETCHER DR", "zipcode": 90065, "deptname": "FIRE" }, "geometry": { "type": "Point", "coordinates": [ -118.244565075709005, 34.115338926760003 ] } },
{ "type": "Feature", "properties": { "stanum": "90", "address": "7921 WOODLEY AVE", "zipcode": 91406, "deptname": "FIRE" }, "geometry": { "type": "Point", "coordinates": [ -118.484009836100995, 34.214381081355 ] } },
{ "type": "Feature", "properties": { "stanum": "72", "address": "6811 DE SOTO AVE", "zipcode": 91303, "deptname": "FIRE" }, "geometry": { "type": "Point", "coordinates": [ -118.588767184673998, 34.193950932128203 ] } },
{ "type": "Feature", "properties": { "stanum": "46", "address": "4370 S. HOOVER ST.", "zipcode": 90037, "deptname": "FIRE" }, "geometry": { "type": "Point", "coordinates": [ -118.286788718365997, 34.004251476928097 ] } },
{ "type": "Feature", "properties": { "stanum": "65", "address": "1801 E CENTURY BLVD", "zipcode": 90002, "deptname": "FIRE" }, "geometry": { "type": "Point", "coordinates": [ -118.240259770351997, 33.946055695133097 ] } },
{ "type": "Feature", "properties": { "stanum": "108", "address": "12520 MULHOLLAND DR", "zipcode": 90210, "deptname": "FIRE" }, "geometry": { "type": "Point", "coordinates": [ -118.406169394699006, 34.127097715757401 ] } },
{ "type": "Feature", "properties": { "stanum": "49", "address": "400 YACHT ST", "zipcode": 90744, "deptname": "FIRE" }, "geometry": { "type": "Point", "coordinates": [ -118.255565614708999, 33.7656859569476 ] } },
{ "type": "Feature", "properties": { "stanum": "41", "address": "1439 N GARDNER ST", "zipcode": 90046, "deptname": "FIRE" }, "geometry": { "type": "Point", "coordinates": [ -118.353260271075996, 34.097326585066597 ] } },
{ "type": "Feature", "properties": { "stanum": "74", "address": "7777 FOOTHILL BLVD", "zipcode": 91042, "deptname": "FIRE" }, "geometry": { "type": "Point", "coordinates": [ -118.301788222837999, 34.258651031869 ] } },
{ "type": "Feature", "properties": { "stanum": "101", "address": "1414 W 25TH ST", "zipcode": 90732, "deptname": "FIRE" }, "geometry": { "type": "Point", "coordinates": [ -118.310281492014994, 33.721922264000803 ] } },
{ "type": "Feature", "properties": { "stanum": "102", "address": "13200 BURBANK BLVD", "zipcode": 91401, "deptname": "FIRE" }, "geometry": { "type": "Point", "coordinates": [ -118.421358205643003, 34.171869862803 ] } },
{ "type": "Feature", "properties": { "stanum": "64", "address": "10811 S. MAIN ST", "zipcode": 90061, "deptname": "FIRE" }, "geometry": { "type": "Point", "coordinates": [ -118.274328137652006, 33.9380314193629 ] } },
{ "type": "Feature", "properties": { "stanum": "103", "address": "18143 PARTHENIA ST", "zipcode": 91325, "deptname": "FIRE" }, "geometry": { "type": "Point", "coordinates": [ -118.528388919807, 34.228946822665399 ] } },
{ "type": "Feature", "properties": { "stanum": "104", "address": "8349 WINNETKA AVE", "zipcode": 91306, "deptname": "FIRE" }, "geometry": { "type": "Point", "coordinates": [ -118.571409982567999, 34.221587516721598 ] } },
{ "type": "Feature", "properties": { "stanum": "1", "address": "2230 PASADENA AVE", "zipcode": 90031, "deptname": "FIRE" }, "geometry": { "type": "Point", "coordinates": [ -118.217753457377, 34.075292215191702 ] } },
{ "type": "Feature", "properties": { "stanum": "78", "address": "4041 WHITSETT AVE", "zipcode": 91604, "deptname": "FIRE" }, "geometry": { "type": "Point", "coordinates": [ -118.405750850743999, 34.144447832996001 ] } },
{ "type": "Feature", "properties": { "stanum": "2", "address": "1962 E CESAR E CHAVEZ AVE", "zipcode": 90033, "deptname": "FIRE" }, "geometry": { "type": "Point", "coordinates": [ -118.213511257771003, 34.048983456472598 ] } },
{ "type": "Feature", "properties": { "stanum": "105", "address": "6345 FALLBROOK AVE", "zipcode": 91367, "deptname": "FIRE" }, "geometry": { "type": "Point", "coordinates": [ -118.623687867228, 34.1854442181331 ] } },
{ "type": "Feature", "properties": { "stanum": "106", "address": "23004 ROSCOE BLVD", "zipcode": 91304, "deptname": "FIRE" }, "geometry": { "type": "Point", "coordinates": [ -118.627914983221999, 34.219043203737897 ] } },
{ "type": "Feature", "properties": { "stanum": "107", "address": "20225 DEVONSHIRE ST", "zipcode": 91311, "deptname": "FIRE" }, "geometry": { "type": "Point", "coordinates": [ -118.573475869668002, 34.257525971888697 ] } },
{ "type": "Feature", "properties": { "stanum": "28", "address": "11641 CORBIN AVE", "zipcode": 91326, "deptname": "FIRE" }, "geometry": { "type": "Point", "coordinates": [ -118.569672329992002, 34.281267921048098 ] } },
{ "type": "Feature", "properties": { "stanum": "109", "address": "16500 MULHOLLAND DR", "zipcode": 90049, "deptname": "FIRE" }, "geometry": { "type": "Point", "coordinates": [ -118.492641699157005, 34.130684218113601 ] } },
{ "type": "Feature", "properties": { "stanum": "15", "address": "3000 S. HOOVER ST", "zipcode": 90007, "deptname": "FIRE" }, "geometry": { "type": "Point", "coordinates": [ -118.283601871233003, 34.026954714242599 ] } },
{ "type": "Feature", "properties": { "stanum": "19", "address": "12229 SUNSET BLVD", "zipcode": 90049, "deptname": "FIRE" }, "geometry": { "type": "Point", "coordinates": [ -118.479671427826005, 34.058586349181397 ] } },
{ "type": "Feature", "properties": { "stanum": "89", "address": "7063 LAUREL CANYON BLVD", "zipcode": 91605, "deptname": "FIRE" }, "geometry": { "type": "Point", "coordinates": [ -118.396804706696003, 34.1991158353038 ] } },
{ "type": "Feature", "properties": { "stanum": "60", "address": "5320 TUJUNGA AVE", "zipcode": 91601, "deptname": "FIRE" }, "geometry": { "type": "Point", "coordinates": [ -118.378563967489995, 34.1677289533798 ] } },
{ "type": "Feature", "properties": { "stanum": "57", "address": "7800 S. VERMONT AVE.", "zipcode": 90044, "deptname": "FIRE" }, "geometry": { "type": "Point", "coordinates": [ -118.291206474828996, 33.968767787946398 ] } },
{ "type": "Feature", "properties": { "stanum": "110", "address": "2945 MINER ST", "zipcode": 90731, "deptname": "FIRE" }, "geometry": { "type": "Point", "coordinates": [ -118.275978607832002, 33.718482428028999 ] } },
{ "type": "Feature", "properties": { "stanum": "111", "address": "1444 S SEASIDE AVE", "zipcode": 90731, "deptname": "FIRE" }, "geometry": { "type": "Point", "coordinates": [ -118.268130286808002, 33.730008583959602 ] } },
{ "type": "Feature", "properties": { "stanum": "79", "address": "18030 S VERMONT AVE", "zipcode": 90248, "deptname": "FIRE" }, "geometry": { "type": "Point", "coordinates": [ -118.290297377067006, 33.868443383163097 ] } },
{ "type": "Feature", "properties": { "stanum": "18", "address": "12050 BALBOA BLVD", "zipcode": 91344, "deptname": "FIRE" }, "geometry": { "type": "Point", "coordinates": [ -118.501396703271993, 34.289600743001003 ] } },
{ "type": "Feature", "properties": { "stanum": "21", "address": "1192 E 51ST ST", "zipcode": 90011, "deptname": "FIRE" }, "geometry": { "type": "Point", "coordinates": [ -118.254872698317001, 33.996905503291998 ] } },
{ "type": "Feature", "properties": { "stanum": "42", "address": "2021 COLORADO BLVD", "zipcode": 90041, "deptname": "FIRE" }, "geometry": { "type": "Point", "coordinates": [ -118.210731948436006, 34.139484270298098 ] } },
{ "type": "Feature", "properties": { "stanum": "24", "address": "9411 WENTWORTH ST", "zipcode": 91040, "deptname": "FIRE" }, "geometry": { "type": "Point", "coordinates": [ -118.337037649259003, 34.264013642899002 ] } },
{ "type": "Feature", "properties": { "stanum": "84", "address": "21050 BURBANK BLVD", "zipcode": 91367, "deptname": "FIRE" }, "geometry": { "type": "Point", "coordinates": [ -118.591466506220002, 34.172777746036203 ] } },
{ "type": "Feature", "properties": { "stanum": "76", "address": "3111 N CAHUENGA BLVD WEST", "zipcode": 90068, "deptname": "FIRE" }, "geometry": { "type": "Point", "coordinates": [ -118.345813390084999, 34.126695177145201 ] } },
{ "type": "Feature", "properties": { "stanum": "55", "address": "4455 E YORK BLVD", "zipcode": 90041, "deptname": "FIRE" }, "geometry": { "type": "Point", "coordinates": [ -118.218597781217994, 34.124065715635197 ] } },
{ "type": "Feature", "properties": { "stanum": "25", "address": "2927 WHITTIER BLVD", "zipcode": 90023, "deptname": "FIRE" }, "geometry": { "type": "Point", "coordinates": [ -118.207651139337997, 34.031063788193997 ] } },
{ "type": "Feature", "properties": { "stanum": "95", "address": "10010 INTERNATIONAL RD", "zipcode": 90045, "deptname": "FIRE" }, "geometry": { "type": "Point", "coordinates": [ -118.381233852142998, 33.945330439765002 ] } },
{ "type": "Feature", "properties": { "stanum": "47", "address": "4575 S HUNTINGTON DR", "zipcode": 90032, "deptname": "FIRE" }, "geometry": { "type": "Point", "coordinates": [ -118.186955490412004, 34.085462161951597 ] } },
{ "type": "Feature", "properties": { "stanum": "99", "address": "14145 MULHOLLAND DR", "zipcode": 90210, "deptname": "FIRE" }, "geometry": { "type": "Point", "coordinates": [ -118.440369034607997, 34.131816639235097 ] } },
{ "type": "Feature", "properties": { "stanum": "70", "address": "9861 RESEDA BLVD", "zipcode": 91324, "deptname": "FIRE" }, "geometry": { "type": "Point", "coordinates": [ -118.536420795390001, 34.249430128098801 ] } },
{ "type": "Feature", "properties": { "stanum": "52", "address": "4957 MELROSE AVE.", "zipcode": 90029, "deptname": "FIRE" }, "geometry": { "type": "Point", "coordinates": [ -118.308474785943005, 34.0837501278438 ] } },
{ "type": "Feature", "properties": { "stanum": "80", "address": "7250 WORLD WAY WEST", "zipcode": 90045, "deptname": "FIRE" }, "geometry": { "type": "Point", "coordinates": [ -118.419402840966995, 33.940631724875303 ] } },
{ "type": "Feature", "properties": { "stanum": "59", "address": "11505 W OLYMPIC BLVD", "zipcode": 90025, "deptname": "FIRE" }, "geometry": { "type": "Point", "coordinates": [ -118.444383106149999, 34.036673572795799 ] } },
{ "type": "Feature", "properties": { "stanum": "38", "address": "124 E I ST", "zipcode": 90744, "deptname": "FIRE" }, "geometry": { "type": "Point", "coordinates": [ -118.261695543935005, 33.781007376647104 ] } },
{ "type": "Feature", "properties": { "stanum": "11", "address": "1819 W 7TH ST", "zipcode": 90057, "deptname": "FIRE" }, "geometry": { "type": "Point", "coordinates": [ -118.273841525652998, 34.055434913657599 ] } },
{ "type": "Feature", "properties": { "stanum": "29", "address": "4029 W WILSHIRE BLVD", "zipcode": 90010, "deptname": "FIRE" }, "geometry": { "type": "Point", "coordinates": [ -118.315351932024996, 34.061980762338102 ] } },
{ "type": "Feature", "properties": { "stanum": "17", "address": "1601 S SANTA FE AV", "zipcode": 90021, "deptname": "FIRE" }, "geometry": { "type": "Point", "coordinates": [ -118.230455180947004, 34.025250720369499 ] } },
{ "type": "Feature", "properties": { "stanum": "100", "address": "6751 LOUISE AVE", "zipcode": 91406, "deptname": "FIRE" }, "geometry": { "type": "Point", "coordinates": [ -118.510022835076995, 34.192900557117397 ] } },
{ "type": "Feature", "properties": { "stanum": "62", "address": "11970 W. VENICE BLVD", "zipcode": 90066, "deptname": "FIRE" }, "geometry": { "type": "Point", "coordinates": [ -118.428171638714005, 34.005880095301499 ] } },
{ "type": "Feature", "properties": { "stanum": "10", "address": "1335 S OLIVE ST", "zipcode": 90015, "deptname": "FIRE" }, "geometry": { "type": "Point", "coordinates": [ -118.264038708624, 34.037370269089799 ] } },
{ "type": "Feature", "properties": { "stanum": "94", "address": "4470 COLISEUM ST", "zipcode": 90008, "deptname": "FIRE" }, "geometry": { "type": "Point", "coordinates": [ -118.345385834230001, 34.017567396018997 ] } },
{ "type": "Feature", "properties": { "stanum": "43", "address": "3690 S. MOTOR AVE", "zipcode": 90034, "deptname": "FIRE" }, "geometry": { "type": "Point", "coordinates": [ -118.405544522994006, 34.023085283811398 ] } },
{ "type": "Feature", "properties": { "stanum": "44", "address": "1410 CYPRESS AVE", "zipcode": 90065, "deptname": "FIRE" }, "geometry": { "type": "Point", "coordinates": [ -118.230978085782994, 34.096851377295899 ] } },
{ "type": "Feature", "properties": { "stanum": "58", "address": "1556 S ROBERTSON BLVD", "zipcode": 90035, "deptname": "FIRE" }, "geometry": { "type": "Point", "coordinates": [ -118.383967644742, 34.0506997888819 ] } },
{ "type": "Feature", "properties": { "stanum": "3", "address": "108 N. FREMONT AVE", "zipcode": 90012, "deptname": "CENTRAL BUREAU" }, "geometry": { "type": "Point", "coordinates": [ -118.252009203363997, 34.058512132990003 ] } },
{ "type": "Feature", "properties": { "stanum": "12", "address": "5921 N FIGUEROA ST", "zipcode": 90042, "deptname": "FIRE" }, "geometry": { "type": "Point", "coordinates": [ -118.190352354674999, 34.111175684183202 ] } },
{ "type": "Feature", "properties": { "stanum": "34", "address": "3661 7TH AVE", "zipcode": 90018, "deptname": "FIRE" }, "geometry": { "type": "Point", "coordinates": [ -118.325111826652005, 34.021228651657196 ] } },
{ "type": "Feature", "properties": { "stanum": "77", "address": "9224 SUNLAND BLVD", "zipcode": 91352, "deptname": "FIRE" }, "geometry": { "type": "Point", "coordinates": [ -118.366944830619005, 34.236294355337698 ] } },
{ "type": "Feature", "properties": { "stanum": "5", "address": "8900 EMERSON AVE", "zipcode": 90045, "deptname": "FIRE" }, "geometry": { "type": "Point", "coordinates": [ -118.403670500768001, 33.955648039066702 ] } },
{ "type": "Feature", "properties": { "stanum": "16", "address": "2011 N EASTERN AV", "zipcode": 90032, "deptname": "FIRE" }, "geometry": { "type": "Point", "coordinates": [ -118.180583050196006, 34.0661759193693 ] } },
{ "type": "Feature", "properties": { "stanum": "73", "address": "7419 RESEDA BLVD", "zipcode": 91335, "deptname": "FIRE" }, "geometry": { "type": "Point", "coordinates": [ -118.536377745425995, 34.205139506858799 ] } },
{ "type": "Feature", "properties": { "stanum": "4", "address": "450 E TEMPLE ST", "zipcode": 90012, "deptname": "FIRE" }, "geometry": { "type": "Point", "coordinates": [ -118.236079326329005, 34.050171452070501 ] } },
{ "type": "Feature", "properties": { "stanum": "20", "address": "2144 W SUNSET BLVD", "zipcode": 90026, "deptname": "FIRE" }, "geometry": { "type": "Point", "coordinates": [ -118.265406095402994, 34.077197657260101 ] } },
{ "type": "Feature", "properties": { "stanum": "112", "address": "444 S HARBOR BLVD", "zipcode": 90731, "deptname": "FIRE" }, "geometry": { "type": "Point", "coordinates": [ -118.278302067975005, 33.740556296169899 ] } },
{ "type": "Feature", "properties": { "stanum": "13", "address": "2401 W PICO BLVD", "zipcode": 90006, "deptname": "FIRE" }, "geometry": { "type": "Point", "coordinates": [ -118.289378161578995, 34.047518357324201 ] } },
{ "type": "Feature", "properties": { "stanum": "87", "address": "10124 BALBOA BLVD", "zipcode": 91343, "deptname": "FIRE" }, "geometry": { "type": "Point", "coordinates": [ -118.501720319556995, 34.254726088679803 ] } },
{ "type": "Feature", "properties": { "stanum": "86", "address": "4305 VINELAND AVE.", "zipcode": 91602, "deptname": "FIRE" }, "geometry": { "type": "Point", "coordinates": [ -118.370951481177997, 34.148489254724097 ] } },
{ "type": "Feature", "properties": { "stanum": "93", "address": "19059 VENTURA BLVD", "zipcode": 91356, "deptname": "FIRE" }, "geometry": { "type": "Point", "coordinates": [ -118.548835917757003, 34.172820400103497 ] } },
{ "type": "Feature", "properties": { "stanum": "33", "address": "6406 S MAIN ST", "zipcode": 90003, "deptname": "FIRE" }, "geometry": { "type": "Point", "coordinates": [ -118.273589291297, 33.981331047346202 ] } },
{ "type": "Feature", "properties": { "stanum": "48", "address": "1601 S GRAND AVE", "zipcode": 90731, "deptname": "FIRE" }, "geometry": { "type": "Point", "coordinates": [ -118.290498523333994, 33.729689420240099 ] } },
{ "type": "Feature", "properties": { "stanum": "98", "address": "13035 VAN NUYS BLVD", "zipcode": 91331, "deptname": "FIRE" }, "geometry": { "type": "Point", "coordinates": [ -118.417144000235993, 34.270066736055298 ] } },
{ "type": "Feature", "properties": { "stanum": "96", "address": "21800 MARILLA ST", "zipcode": 91311, "deptname": "FIRE" }, "geometry": { "type": "Point", "coordinates": [ -118.603048554349002, 34.247355107032199 ] } },
{ "type": "Feature", "properties": { "stanum": "88", "address": "5101 N SEPULVEDA BLVD", "zipcode": 91403, "deptname": "FIRE" }, "geometry": { "type": "Point", "coordinates": [ -118.466492726688003, 34.1630565410318 ] } },
{ "type": "Feature", "properties": { "stanum": "26", "address": "2009 S WESTERN AVE", "zipcode": 90018, "deptname": "FIRE" }, "geometry": { "type": "Point", "coordinates": [ -118.309322994997004, 34.0387493446419 ] } },
{ "type": "Feature", "properties": { "stanum": "91", "address": "14430 POLK ST", "zipcode": 91342, "deptname": "FIRE" }, "geometry": { "type": "Point", "coordinates": [ -118.447217056411006, 34.309405431240499 ] } },
{ "type": "Feature", "properties": { "stanum": "67", "address": "5451 PLAYA VISTA DR", "zipcode": 90094, "deptname": "FIRE" }, "geometry": { "type": "Point", "coordinates": [ -118.428496604268005, 33.974213794000299 ] } },
{ "type": "Feature", "properties": { "stanum": "114", "address": "16617 ARMINTA ST", "zipcode": 91406, "deptname": "FIRE" }, "geometry": { "type": "Point", "coordinates": [ -118.494518844826004, 34.216053313085197 ] } },
{ "type": "Feature", "properties": { "stanum": "40", "address": "330 FERRY ST", "zipcode": 90731, "deptname": "FIRE" }, "geometry": { "type": "Point", "coordinates": [ -118.261487206653996, 33.746877441356297 ] } },
{ "type": "Feature", "properties": { "stanum": "9", "address": "430 E 7TH ST", "zipcode": 90014, "deptname": "FIRE" }, "geometry": { "type": "Point", "coordinates": [ -118.247897166947993, 34.041237015197098 ] } },
{ "type": "Feature", "properties": { "stanum": "51", "address": "10435 S SEPULVEDA BLVD", "zipcode": 90045, "deptname": "FIRE" }, "geometry": { "type": "Point", "coordinates": [ -118.397190242055999, 33.940485353994902 ] } },
{ "type": "Feature", "properties": { "stanum": "85", "address": "1331 W 253RD ST", "zipcode": 90710, "deptname": "FIRE" }, "geometry": { "type": "Point", "coordinates": [ -118.300028850794007, 33.795022438150298 ] } },
{ "type": "Feature", "properties": { "stanum": "37", "address": "1090 VETERAN AVE", "zipcode": 90024, "deptname": "FIRE" }, "geometry": { "type": "Point", "coordinates": [ -118.449106146079998, 34.059993905223401 ] } },
{ "type": "Feature", "properties": { "stanum": "66", "address": "1909 W SLAUSON BLVD", "zipcode": 90047, "deptname": "FIRE" }, "geometry": { "type": "Point", "coordinates": [ -118.311565389372007, 33.9894193491455 ] } },
{ "type": "Feature", "properties": { "stanum": "81", "address": "14355 ARMINTA ST", "zipcode": 91402, "deptname": "FIRE" }, "geometry": { "type": "Point", "coordinates": [ -118.444269994780996, 34.213341386203403 ] } },
{ "type": "Feature", "properties": { "stanum": "82", "address": "5769 HOLLYWOOD BLVD", "zipcode": 90028, "deptname": "FIRE" }, "geometry": { "type": "Point", "coordinates": [ -118.315456048562993, 34.102046403653901 ] } },
{ "type": "Feature", "properties": { "stanum": "56", "address": "2759 ROWENA AVE", "zipcode": 90039, "deptname": "FIRE" }, "geometry": { "type": "Point", "coordinates": [ -118.263622827275, 34.1075710723089 ] } }
]
}
